ID,Boro,Community Board,Latitude,Longitude,Construction Status,Link Installation Status,Smallest PPT,Street Address,Orientation (Facing Front of Kiosk),Boro ID,Construction Complete (A),Location,Link Site ID
LINK-000067,Bronx,205,40.860215,-73.89306,Not Ready for CX,A - Link Live,116218,2461 Webster Ave,108 E,NY-BX,4/28/16,"(40.860214999999997, -73.893060000000006)",bx-05-116218
LINK-000070,Bronx,207,40.862644,-73.903244,Not Ready for CX,A - Link Live,119564,48 W Fordham Rd,4 N,NY-BX,8/12/16,"(40.862644000000003, -73.903244000000001)",bx-07-119564
LINK-000072,Bronx,205,40.861349,-73.898023,Not Ready for CX,A - Link Live,119575,2437 Grand Concourse,100 E,NY-BX,6/27/16,"(40.861348999999997, -73.898022999999995)",bx-05-119575
LINK-000074,Bronx,205,40.861655,-73.898581,Not Ready for CX,A - Link Live,119587,150 E 188St,9 N,NY-BX,4/28/16,"(40.861654999999999, -73.898580999999993)",bx-05-119587
LINK-000076,Bronx,205,40.859153,-73.898553,Not Ready for CX,A - Link Live,119628,2366-2370 Grand Concourse,338 N,NY-BX,4/28/16,"(40.859152999999999, -73.898553000000007)",bx-05-119628
LINK-000092,Manhattan,105,40.765828,-73.983364,CX Complete / Link Installed,A - Link Live,122622,944 8 Avenue,335 NW,NY-MN,7/19/16,"(40.765827999999999, -73.983363999999995)",mn-05-122622
LINK-000111,Manhattan,105,40.766175,-73.98199,Not Ready for CX,A - Link Live,122522,250 West 57St,42 NE,NY-MN,5/26/16,"(40.766174999999997, -73.981989999999996)",mn-05-122522
LINK-000130,Manhattan,105,40.746624,-73.988399,Not Ready for CX,A - Link Live,122180,1216 Broadway,227 SW,NY-MN,4/10/16,"(40.746623999999997, -73.988399000000001)",mn-05-122180
LINK-000141,Manhattan,105,40.749663,-73.988006,Not Ready for CX,A - Link Live,122369,1293 Broadway,99 E,NY-MN,4/28/16,"(40.749662999999998, -73.988005999999999)",mn-05-122369
LINK-000155,Manhattan,105,40.754494,-73.986941,Not Ready for CX,A - Link Live,122169,1431 Broadway,112 E,NY-MN,7/22/16,"(40.754494000000001, -73.986941000000002)",mn-05-122169
LINK-000158,Manhattan,105,40.754846,-73.986363,Not Ready for CX,A - Link Live,122171,1450 Broadway,4 N,NY-MN,7/22/16,"(40.754846000000001, -73.986362999999997)",mn-05-122171
LINK-000162,Manhattan,105,40.760413,-73.984541,Not Ready for CX,A - Link Live,133361,1600 Broadway,296 NW,NY-MN,5/14/16,"(40.760413, -73.984540999999993)",mn-05-133361
LINK-000163,Manhattan,105,40.760269,-73.984867,Not Ready for CX,A - Link Live,134185,1605 Broadway,147 SE,NY-MN,5/14/16,"(40.760269000000001, -73.984866999999994)",mn-05-134185
LINK-000164,Manhattan,105,40.760646,-73.98442,Not Ready for CX,A - Link Live,122088,1606 Broadway,316 NW,NY-MN,4/30/16,"(40.760646000000001, -73.98442)",mn-05-122088
LINK-000165,Manhattan,105,40.760622,-73.984234,Not Ready for CX,A - Link Live,133511,1606 Broadway,5 N,NY-MN,4/30/16,"(40.760621999999998, -73.984234000000001)",mn-05-133511
LINK-000166,Manhattan,105,40.76072,-73.984642,Not Ready for CX,A - Link Live,134155,1611 Broadway,101 E,NY-MN,5/26/16,"(40.760719999999999, -73.984641999999994)",mn-05-134155
LINK-000168,Manhattan,105,40.760883,-73.984278,Not Ready for CX,A - Link Live,133508,1626 Broadway,341 N,NY-MN,5/26/16,"(40.760883, -73.984278000000003)",mn-05-133508
LINK-000177,Manhattan,105,40.763981,-73.982638,Not Ready for CX,A - Link Live,122541,1701 Broadway,99 E,NY-MN,4/30/16,"(40.763981000000001, -73.982637999999994)",mn-05-122541
LINK-000178,Manhattan,105,40.764127,-73.98231,Not Ready for CX,A - Link Live,122529,1710 Broadway,306 NW,NY-MN,4/15/16,"(40.764127000000002, -73.982309999999998)",mn-05-122529
LINK-000180,Manhattan,105,40.764676,-73.982385,Not Ready for CX,A - Link Live,122532,1725 Broadway,107 E,NY-MN,5/14/16,"(40.764676000000001, -73.982384999999994)",mn-05-122532
LINK-000185,Manhattan,105,40.750087,-73.987781,Not Ready for CX,A - Link Live,122775,Herald Square,277 W,NY-MN,4/28/16,"(40.750087000000001, -73.987780999999998)",mn-05-122775
LINK-000223,Manhattan,103,40.733107,-73.987162,Not Ready for CX,A - Link Live,123265,123 3Rd Ave,309 NW,NY-MN,11/21/15,"(40.733106999999997, -73.987161999999998)",mn-03-123265
LINK-000224,Manhattan,106,40.733694,-73.987044,Not Ready for CX,A - Link Live,136486,130 3Rd Ave,135 SE,NY-MN,1/22/16,"(40.733694, -73.987043999999997)",mn-06-136486
LINK-000225,Manhattan,106,40.73347,-73.987384,Not Ready for CX,A - Link Live,123261,133 East 14Th St,197 S,NY-MN,6/29/16,"(40.733469999999997, -73.987384000000006)",mn-06-123261
LINK-000227,Manhattan,106,40.733794,-73.986675,Not Ready for CX,A - Link Live,133896,141 3Rd Ave,312 NW,NY-MN,11/12/15,"(40.733794000000003, -73.986675000000005)",mn-06-133896
LINK-000230,Manhattan,106,40.734499,-73.98618,Not Ready for CX,A - Link Live,133339,165 3Rd Ave,300 NW,NY-MN,11/17/15,"(40.734499, -73.986180000000004)",mn-06-133339
LINK-000231,Manhattan,106,40.742625,-73.980628,Not Ready for CX,A - Link Live,121495,154 E 29Th St,1 N,NY-MN,4/21/16,"(40.742624999999997, -73.980627999999996)",mn-06-121495
LINK-000232,Manhattan,106,40.748387,-73.976353,Not Ready for CX,A - Link Live,121521,155 East 38Th Street,83 E,NY-MN,2/12/16,"(40.748387000000001, -73.976353000000003)",mn-06-121521
LINK-000233,Manhattan,106,40.74829,-73.976516,Not Ready for CX,A - Link Live,136202,160 East 38Th Street,36 NE,NY-MN,2/1/16,"(40.748289999999997, -73.976516000000004)",mn-06-136202
LINK-000235,Manhattan,106,40.758276,-73.969132,Not Ready for CX,A - Link Live,134118,160 East 54Th,114 SE,NY-MN,2/3/16,"(40.758276000000002, -73.969132000000002)",mn-06-134118
LINK-000240,Manhattan,106,40.739531,-73.982889,Not Ready for CX,A - Link Live,121489,172 E 24Th St,7 N,NY-MN,4/21/16,"(40.739530999999999, -73.982889)",mn-06-121489
LINK-000241,Manhattan,106,40.734772,-73.986265,Not Ready for CX,A - Link Live,133531,180 3Rd Ave,115 SE,NY-MN,11/21/15,"(40.734772, -73.986265000000003)",mn-06-133531
LINK-000242,Manhattan,106,40.73535,-73.98585,Not Ready for CX,A - Link Live,133521,188 3Rd Ave,108 E,NY-MN,11/18/15,"(40.735349999999997, -73.985849999999999)",mn-06-133521
LINK-000243,Manhattan,106,40.735626,-73.985322,Not Ready for CX,A - Link Live,123634,203 3Rd Ave,305 NW,NY-MN,11/21/15,"(40.735626000000003, -73.985321999999996)",mn-06-123634
LINK-000251,Manhattan,106,40.750729,-73.974079,Not Ready for CX,A - Link Live,137072,201 East 42Nd St,229 SW,NY-MN,11/16/15,"(40.750729, -73.974079000000003)",mn-06-137072
LINK-000252,Manhattan,106,40.760207,-73.967177,Not Ready for CX,A - Link Live,134218,201 East 57Th Street,220 SW,NY-MN,4/21/16,"(40.760207000000001, -73.967177000000007)",mn-06-134218
LINK-000253,Manhattan,106,40.736214,-73.9849,Not Ready for CX,A - Link Live,133527,205 3Rd Ave,301 NW,NY-MN,5/11/16,"(40.736213999999997, -73.984899999999996)",mn-06-133527
LINK-000254,Manhattan,106,40.735839,-73.985171,Not Ready for CX,A - Link Live,133890,205 3Rd Ave,284 W,NY-MN,1/26/16,"(40.735838999999999, -73.985170999999994)",mn-06-133890
LINK-000256,Manhattan,106,40.736334,-73.985129,Not Ready for CX,A - Link Live,133525,220 3Rd Ave,103 E,NY-MN,4/7/16,"(40.736333999999999, -73.985129000000001)",mn-06-133525
LINK-000257,Manhattan,106,40.736427,-73.984751,Not Ready for CX,A - Link Live,133440,233 3Rd Ave,315 NW,NY-MN,1/26/16,"(40.736426999999999, -73.984751000000003)",mn-06-133440
LINK-000258,Manhattan,106,40.736789,-73.984486,Not Ready for CX,A - Link Live,123822,243 3Rd Ave,315 NW,NY-MN,1/26/16,"(40.736789000000002, -73.984486000000004)",mn-06-123822
LINK-000266,Manhattan,106,40.740041,-73.982424,Not Ready for CX,A - Link Live,121501,336 3rd Ave,109 E,NY-MN,1/26/16,"(40.740040999999998, -73.982423999999995)",mn-06-121501
LINK-000267,Manhattan,106,40.739964,-73.982043,Not Ready for CX,A - Link Live,103457,337 3Rd Ave On E25Th St,21 N,NY-MN,6/27/16,"(40.739964000000001, -73.982043000000004)",mn-06-103457
LINK-000269,Manhattan,106,40.740246,-73.982383,Not Ready for CX,A - Link Live,138462,340 3Rd Ave,209 SW,NY-MN,4/21/16,"(40.740245999999999, -73.982382999999999)",mn-06-138462
LINK-000272,Manhattan,106,40.740573,-73.981729,Not Ready for CX,A - Link Live,121539,355 3Rd Ave,300 NW,NY-MN,11/12/15,"(40.740572999999998, -73.981729000000001)",mn-06-121539
LINK-000273,Manhattan,106,40.740775,-73.981576,Not Ready for CX,A - Link Live,121499,359 3Rd Ave,315 NW,NY-MN,11/14/15,"(40.740774999999999, -73.981576000000004)",mn-06-121499
LINK-000276,Manhattan,106,40.741169,-73.981297,Not Ready for CX,A - Link Live,121498,371 3Rd Ave,332 NW,NY-MN,1/22/16,"(40.741168999999999, -73.981296999999998)",mn-06-121498
LINK-000278,Manhattan,106,40.742007,-73.98068,Not Ready for CX,A - Link Live,121496,395 3Rd Ave,304 NW,NY-MN,4/21/16,"(40.742007000000001, -73.980680000000007)",mn-06-121496
LINK-000284,Manhattan,106,40.743093,-73.979813,Not Ready for CX,A - Link Live,121506,429 3Rd Ave,9 N,NY-MN,5/11/16,"(40.743093000000002, -73.979812999999993)",mn-06-121506
LINK-000286,Manhattan,106,40.743954,-73.979652,Not Ready for CX,A - Link Live,121505,450 3Rd Ave,179 S,NY-MN,4/21/16,"(40.743954000000002, -73.979652000000002)",mn-06-121505
LINK-000287,Manhattan,106,40.743876,-73.979316,Not Ready for CX,A - Link Live,133465,451 3Rd Ave,291 W,NY-MN,11/21/15,"(40.743876, -73.979315999999997)",mn-06-133465
LINK-000292,Manhattan,106,40.745116,-73.978416,Not Ready for CX,A - Link Live,121502,489 3Rd Ave,328 NW,NY-MN,2/2/16,"(40.745116000000003, -73.978415999999996)",mn-06-121502
LINK-000297,Manhattan,106,40.746449,-73.977444,Not Ready for CX,A - Link Live,121513,525 3Rd Ave,348 N,NY-MN,2/4/16,"(40.746448999999998, -73.977444000000006)",mn-06-121513
LINK-000298,Manhattan,106,40.746542,-73.977695,Not Ready for CX,A - Link Live,121512,528 3Rd Ave,101 E,NY-MN,11/12/15,"(40.746541999999998, -73.977694999999997)",mn-06-121512
LINK-000302,Manhattan,106,40.747672,-73.976965,Not Ready for CX,A - Link Live,138165,558 East 37Th St,6 N,NY-MN,5/11/16,"(40.747672000000001, -73.976965000000007)",mn-06-138165
LINK-000303,Manhattan,106,40.74779,-73.976782,Not Ready for CX,A - Link Live,121522,560 3Rd Ave,139 SE,NY-MN,11/14/15,"(40.747790000000002, -73.976782)",mn-06-121522
LINK-000304,Manhattan,106,40.748289,-73.976105,Not Ready for CX,A - Link Live,121352,581B 3Rd Ave,335 NW,NY-MN,11/12/15,"(40.748289, -73.976105000000004)",mn-06-121352
LINK-000306,Manhattan,106,40.748822,-73.976034,Not Ready for CX,A - Link Live,121519,596 3Rd Ave,153 SE,NY-MN,3/15/16,"(40.748821999999997, -73.976033999999999)",mn-06-121519
LINK-000308,Manhattan,106,40.748732,-73.97536,Not Ready for CX,A - Link Live,138030,605 3Rd Ave,238 SW,NY-MN,5/11/16,"(40.748731999999997, -73.975359999999995)",mn-06-138030
LINK-000310,Manhattan,106,40.748914,-73.975648,Not Ready for CX,A - Link Live,121364,605 3Rd Ave,336 NW,NY-MN,11/16/15,"(40.748913999999999, -73.975648000000007)",mn-06-121364
LINK-000313,Manhattan,106,40.750156,-73.974741,Not Ready for CX,A - Link Live,121527,639 3Rd Ave,326 NW,NY-MN,6/10/16,"(40.750155999999997, -73.974740999999995)",mn-06-121527
LINK-000315,Manhattan,106,40.750389,-73.974858,Not Ready for CX,A - Link Live,137977,640 3Rd Ave,106 E,NY-MN,12/1/15,"(40.750388999999998, -73.974857999999998)",mn-06-137977
LINK-000316,Manhattan,106,40.75096,-73.974468,Not Ready for CX,A - Link Live,121362,666 3Rd Ave,123 SE,NY-MN,11/12/15,"(40.750959999999999, -73.974468000000002)",mn-06-121362
LINK-000317,Manhattan,106,40.751406,-73.974143,Not Ready for CX,A - Link Live,121536,666 3Rd Ave,70 E,NY-MN,2/4/16,"(40.751406000000003, -73.974142999999998)",mn-06-121536
LINK-000320,Manhattan,106,40.751497,-73.973765,Not Ready for CX,A - Link Live,121535,685 3Rd Ave,317 NW,NY-MN,7/14/16,"(40.751497000000001, -73.973765)",mn-06-121535
LINK-000327,Manhattan,106,40.752666,-73.972842,Not Ready for CX,A - Link Live,121358,721 3Rd Ave E45St,214 SW,NY-MN,12/1/15,"(40.752665999999998, -73.972842)",mn-06-121358
LINK-000328,Manhattan,106,40.753196,-73.972445,Not Ready for CX,A - Link Live,121370,733 3Rd Ave,17 N,NY-MN,12/21/15,"(40.753196000000003, -73.972444999999993)",mn-06-121370
LINK-000331,Manhattan,106,40.753899,-73.972326,Not Ready for CX,A - Link Live,121816,750 3Rd Ave,78 E,NY-MN,11/21/15,"(40.753898999999997, -73.972325999999995)",mn-06-121816
LINK-000333,Manhattan,106,40.754092,-73.97218,Not Ready for CX,A - Link Live,133473,760 3Rd Ave,107 E,NY-MN,2/5/16,"(40.754092, -73.972179999999994)",mn-06-133473
LINK-000334,Manhattan,106,40.754513,-73.971879,Not Ready for CX,A - Link Live,121813,768 3Rd Ave,100 E,NY-MN,1/27/16,"(40.754513000000003, -73.971879000000001)",mn-06-121813
LINK-000335,Manhattan,106,40.75523,-73.971024,Not Ready for CX,A - Link Live,121824,797 3Rd Ave,316 NW,NY-MN,11/12/15,"(40.755229999999997, -73.971024)",mn-06-121824
LINK-000336,Manhattan,106,40.755874,-73.971032,Not Ready for CX,A - Link Live,121820,800 3Rd Ave,2 N,NY-MN,5/11/16,"(40.755873999999999, -73.971031999999994)",mn-06-121820
LINK-000337,Manhattan,106,40.755362,-73.971265,Not Ready for CX,A - Link Live,121822,800 3Rd Ave,102 E,NY-MN,11/19/15,"(40.755361999999998, -73.971265000000002)",mn-06-121822
LINK-000338,Manhattan,106,40.756324,-73.970145,Not Ready for CX,A - Link Live,121831,835 3Rd Ave,109 E,NY-MN,4/28/16,"(40.756323999999999, -73.970145000000002)",mn-06-121831
LINK-000339,Manhattan,106,40.756503,-73.970107,Not Ready for CX,A - Link Live,133472,845 3Rd Ave,324 NW,NY-MN,2/4/16,"(40.756503000000002, -73.970106999999999)",mn-06-133472
LINK-000340,Manhattan,106,40.75691,-73.969813,Not Ready for CX,A - Link Live,133477,845 3Rd Avenue,244 SW,NY-MN,3/1/16,"(40.756909999999998, -73.969813000000002)",mn-06-133477
LINK-000349,Manhattan,106,40.758518,-73.968987,Not Ready for CX,A - Link Live,135879,900 3Rd Ave,87 E,NY-MN,11/21/15,"(40.758518000000002, -73.968986999999998)",mn-06-135879
LINK-000350,Manhattan,106,40.758993,-73.968727,Not Ready for CX,A - Link Live,121842,906 3Rd Ave,1 N,NY-MN,5/23/16,"(40.758992999999997, -73.968727000000001)",mn-06-121842
LINK-000351,Manhattan,106,40.758397,-73.968709,Not Ready for CX,A - Link Live,121836,909 3Rd Avenue,149 SE,NY-MN,2/12/16,"(40.758397000000002, -73.968709000000004)",mn-06-121836
LINK-000352,Manhattan,106,40.758817,-73.96841,Not Ready for CX,A - Link Live,121854,909 3Rd Avenue,313 NW,NY-MN,2/12/16,"(40.758817000000001, -73.968410000000006)",mn-06-121854
LINK-000355,Manhattan,106,40.75961,-73.968242,Not Ready for CX,A - Link Live,121850,930 3Rd Ave,12 N,NY-MN,6/10/16,"(40.759610000000002, -73.968242000000004)",mn-06-121850
LINK-000357,Manhattan,106,40.759756,-73.968048,Not Ready for CX,A - Link Live,136181,936 3Rd Ave,96 E,NY-MN,2/19/16,"(40.759756000000003, -73.968047999999996)",mn-06-136181
LINK-000359,Manhattan,106,40.760003,-73.967592,Not Ready for CX,A - Link Live,133436,939 3Rd Avenue,309 NW,NY-MN,2/15/16,"(40.760002999999998, -73.967591999999996)",mn-06-133436
LINK-000360,Manhattan,106,40.759631,-73.967826,Not Ready for CX,A - Link Live,121849,949 3Rd Avenue,325 NW,NY-MN,2/15/16,"(40.759630999999999, -73.967826000000002)",mn-06-121849
LINK-000361,Manhattan,106,40.760136,-73.967777,Not Ready for CX,A - Link Live,121733,950 3Rd Ave,106 E,NY-MN,2/19/16,"(40.760136000000003, -73.967776999999998)",mn-06-121733
LINK-000362,Manhattan,106,40.760346,-73.967303,Not Ready for CX,A - Link Live,121857,953 3Rd Avenue,317 NW,NY-MN,5/31/16,"(40.760345999999998, -73.967303000000001)",mn-06-121857
LINK-000363,Manhattan,106,40.760462,-73.967551,Not Ready for CX,A - Link Live,138438,954 3Rd Ave,146 SE,NY-MN,2/19/16,"(40.760461999999997, -73.967551)",mn-06-138438
LINK-000364,Manhattan,106,40.760651,-73.967084,Not Ready for CX,A - Link Live,133481,969 3Rd Ave,337 NW,NY-MN,8/12/16,"(40.760651000000003, -73.967084)",mn-06-133481
LINK-000366,Manhattan,106,40.761086,-73.967078,Not Ready for CX,A - Link Live,133433,974 3Rd Ave,26 NE,NY-MN,8/12/16,"(40.761085999999999, -73.967078000000001)",mn-06-133433
LINK-000369,Manhattan,108,40.761604,-73.966388,Not Ready for CX,A - Link Live,121734,991 3Rd Ave,44 NE,NY-MN,2/20/16,"(40.761603999999998, -73.966387999999995)",mn-08-121734
LINK-000447,Manhattan,102,40.739442,-74.002597,Not Ready for CX,A - Link Live,128511,74 8 AVENUE,292 W,NY-MN,3/10/16,"(40.739441999999997, -74.002596999999994)",mn-02-128511
LINK-000453,Manhattan,104,40.742297,-74.00094,Not Ready for CX,A - Link Live,108537,159 8 Avenue,357 N,NY-MN,3/17/16,"(40.742297000000001, -74.00094)",mn-04-108537
LINK-000458,Manhattan,105,40.767271,-73.982247,Not Ready for CX,A - Link Live,122628,1775 Broadway,12 N,NY-MN,3/2/16,"(40.767271000000001, -73.982247000000001)",mn-05-122628
LINK-000462,Manhattan,104,40.743582,-73.999902,Not Ready for CX,A - Link Live,123508,199 8 Avenue,43 NE,NY-MN,3/17/16,"(40.743582000000004, -73.999902000000006)",mn-04-123508
LINK-000464,Manhattan,104,40.744263,-73.999405,Not Ready for CX,A - Link Live,107977,221 8 Avenue,76 E,NY-MN,3/15/16,"(40.744262999999997, -73.999404999999996)",mn-04-107977
LINK-000465,Manhattan,104,40.744403,-73.998993,Not Ready for CX,A - Link Live,123501,232 8 Avenue,318 NW,NY-MN,3/7/16,"(40.744402999999998, -73.998992999999999)",mn-04-123501
LINK-000466,Manhattan,104,40.744589,-73.999171,Not Ready for CX,A - Link Live,108002,233 8 Avenue,60 NE,NY-MN,3/15/16,"(40.744588999999998, -73.999171000000004)",mn-04-108002
LINK-000468,Manhattan,104,40.74475,-73.998736,Not Ready for CX,A - Link Live,108509,238 8 Avenue,309 NW,NY-MN,3/15/16,"(40.744750000000003, -73.998735999999994)",mn-04-108509
LINK-000469,Manhattan,105,40.747905,-73.996434,Not Ready for CX,A - Link Live,137326,243 West 27Th St,327 NW,NY-MN,5/31/16,"(40.747905000000003, -73.996433999999994)",mn-05-137326
LINK-000472,Manhattan,105,40.763424,-73.985061,Not Ready for CX,A - Link Live,139276,260 West 52St,19 N,NY-MN,3/3/16,"(40.763424000000001, -73.985061000000002)",mn-05-139276
LINK-000473,Manhattan,104,40.745445,-73.998618,Not Ready for CX,A - Link Live,123646,261 West 23St,199 S,NY-MN,5/17/16,"(40.745444999999997, -73.998617999999993)",mn-04-123646
LINK-000475,Manhattan,105,40.757544,-73.989409,Not Ready for CX,A - Link Live,107818,670 8 AVENUE,321 NW,NY-MN,3/11/16,"(40.757544000000003, -73.989408999999995)",mn-05-107818
LINK-000480,Manhattan,105,40.757753,-73.989252,Not Ready for CX,A - Link Live,121354,270 West 43St,326 NW,NY-MN,3/10/16,"(40.757753000000001, -73.989251999999993)",mn-05-121354
LINK-000483,Manhattan,104,40.745929,-73.997753,Not Ready for CX,A - Link Live,139167,282 8 Avenue,245 SW,NY-MN,3/8/16,"(40.745928999999997, -73.997753000000003)",mn-04-139167
LINK-000484,Manhattan,104,40.766642,-73.983101,Not Ready for CX,A - Link Live,122503,300 West 57Th St,98 E,NY-MN,3/4/16,"(40.766641999999997, -73.983101000000005)",mn-04-122503
LINK-000486,Manhattan,104,40.766947,-73.98315,Not Ready for CX,A - Link Live,133373,301 West 57Th St,200 S,NY-MN,7/11/16,"(40.766947000000002, -73.983149999999995)",mn-04-133373
LINK-000487,Manhattan,104,40.766964,-73.982855,Not Ready for CX,A - Link Live,122621,302 West 57Th St,118 SE,NY-MN,7/14/16,"(40.766964000000002, -73.982855000000001)",mn-04-122621
LINK-000489,Manhattan,104,40.754138,-73.992341,Not Ready for CX,A - Link Live,122567,302 West 37St,7 N,NY-MN,3/3/16,"(40.754137999999998, -73.992340999999996)",mn-04-122567
LINK-000493,Manhattan,104,40.747381,-73.997136,Not Ready for CX,A - Link Live,123656,327 8 Avenue,104 E,NY-MN,4/11/16,"(40.747380999999997, -73.997135999999998)",mn-04-123656
LINK-000496,Manhattan,105,40.749122,-73.995553,Not Ready for CX,A - Link Live,136213,382 8 Avenue,344 N,NY-MN,3/15/16,"(40.749122, -73.995553000000001)",mn-05-136213
LINK-000498,Manhattan,104,40.767363,-73.982576,Not Ready for CX,A - Link Live,144139,4 Columbus Circle,126 SE,NY-MN,7/19/16,"(40.767363000000003, -73.982575999999995)",mn-04-144139
LINK-000501,Manhattan,104,40.749828,-73.995525,Not Ready for CX,A - Link Live,108137,403 8Th Av,213 SW,NY-MN,4/7/16,"(40.749828000000001, -73.995525000000001)",mn-04-108137
LINK-000503,Manhattan,104,40.75023,-73.995059,Not Ready for CX,A - Link Live,122691,413 8 Avenue,37 NE,NY-MN,3/15/16,"(40.750230000000002, -73.995058999999998)",mn-04-122691
LINK-000505,Manhattan,105,40.752709,-73.992756,Not Ready for CX,A - Link Live,108471,494 8 Avenue,13 N,NY-MN,4/11/16,"(40.752709000000003, -73.992756)",mn-05-108471
LINK-000508,Manhattan,105,40.752949,-73.992762,Not Ready for CX,A - Link Live,122305,500 8 Avenue,310 NW,NY-MN,4/11/16,"(40.752949000000001, -73.992761999999999)",mn-05-122305
LINK-000511,Manhattan,104,40.75343,-73.992731,Not Ready for CX,A - Link Live,122068,519 8 Avenue,28 NE,NY-MN,3/14/16,"(40.753430000000002, -73.992731000000006)",mn-04-122068
LINK-000513,Manhattan,104,40.753643,-73.992565,Not Ready for CX,A - Link Live,108109,523 8 Avenue,100 E,NY-MN,3/14/16,"(40.753642999999997, -73.992564999999999)",mn-04-108109
LINK-000516,Manhattan,105,40.754171,-73.991871,Not Ready for CX,A - Link Live,108433,550 8 Avenue,334 NW,NY-MN,3/10/16,"(40.754170999999999, -73.991871000000003)",mn-05-108433
LINK-000518,Manhattan,104,40.754668,-73.991821,Not Ready for CX,A - Link Live,122565,557 8 Avenue,125 SE,NY-MN,3/29/16,"(40.754668000000002, -73.991821000000002)",mn-04-122565
LINK-000522,Manhattan,104,40.755283,-73.991376,Not Ready for CX,A - Link Live,122078,589 8 Avenue,78 E,NY-MN,3/3/16,"(40.755282999999999, -73.991376000000002)",mn-04-122078
LINK-000524,Manhattan,104,40.7555,-73.991425,Not Ready for CX,A - Link Live,136982,601 8 Avenue,203 S,NY-MN,3/14/16,"(40.755499999999998, -73.991425000000007)",mn-04-136982
LINK-000525,Manhattan,104,40.755879,-73.990935,Not Ready for CX,A - Link Live,122075,615 8 Avenue,71 E,NY-MN,3/10/16,"(40.755879, -73.990934999999993)",mn-04-122075
LINK-000527,Manhattan,104,40.758668,-73.988905,Not Ready for CX,A - Link Live,142001,701 8 Avenue,85 E,NY-MN,3/5/16,"(40.758668, -73.988905000000003)",mn-04-142001
LINK-000528,Manhattan,104,40.758832,-73.988782,Not Ready for CX,A - Link Live,108485,705 8 Avenue,35 NE,NY-MN,3/5/16,"(40.758831999999998, -73.988782)",mn-04-108485
LINK-000529,Manhattan,104,40.759109,-73.988585,Not Ready for CX,A - Link Live,122583,713 8 Avenue,57 NE,NY-MN,3/5/16,"(40.759109000000002, -73.988585)",mn-04-122583
LINK-000531,Manhattan,105,40.759221,-73.988186,Not Ready for CX,A - Link Live,122092,724 8 Avenue,310 NW,NY-MN,3/10/16,"(40.759220999999997, -73.988185999999999)",mn-05-122092
LINK-000532,Manhattan,102,40.739672,-74.002748,Not Ready for CX,A - Link Live,123540,75 8 Avenue,195 S,NY-MN,3/8/16,"(40.739671999999999, -74.002747999999997)",mn-02-123540
LINK-000533,Manhattan,104,40.76107,-73.987254,Not Ready for CX,A - Link Live,108148,787 8 Avenue,28 NE,NY-MN,3/3/16,"(40.761069999999997, -73.987253999999993)",mn-04-108148
LINK-000535,Manhattan,105,40.761094,-73.986828,CX Complete / Link Installed,A - Link Live,122586,790 8 Avenue,298 NW,NY-MN,3/14/16,"(40.761094, -73.986828000000003)",mn-05-122586
LINK-000537,Manhattan,104,40.739846,-74.002305,Not Ready for CX,A - Link Live,122299,80 8 Avenue,324 NW,NY-MN,3/25/16,"(40.739846, -74.002305000000007)",mn-04-122299
LINK-000538,Manhattan,104,40.739722,-74.002214,Not Ready for CX,A - Link Live,123541,80 8 Avenue,286 W,NY-MN,3/8/16,"(40.739722, -74.002213999999995)",mn-04-123541
LINK-000539,Manhattan,104,40.762247,-73.986295,Not Ready for CX,A - Link Live,122595,825 8 Avenue,69 E,NY-MN,3/3/16,"(40.762247000000002, -73.986294999999998)",mn-04-122595
LINK-000540,Manhattan,105,40.762151,-73.986052,Not Ready for CX,A - Link Live,139462,828 8 Avenue,267 W,NY-MN,3/3/16,"(40.762151000000003, -73.986052000000001)",mn-05-139462
LINK-000541,Manhattan,105,40.762331,-73.985923,CX Complete / Link Installed,A - Link Live,122593,830 8 Avenue,321 NW,NY-MN,4/10/16,"(40.762331000000003, -73.985923)",mn-05-122593
LINK-000549,Manhattan,104,40.764338,-73.984767,Not Ready for CX,A - Link Live,122620,891 8 Avenue,22 NE,NY-MN,4/7/16,"(40.764338000000002, -73.984767000000005)",mn-04-122620
LINK-000550,Manhattan,105,40.764646,-73.984229,Not Ready for CX,A - Link Live,122615,900 8 Avenue,308 NW,NY-MN,3/3/16,"(40.764645999999999, -73.984228999999999)",mn-05-122615
LINK-000551,Manhattan,105,40.764212,-73.984544,Not Ready for CX,A - Link Live,139461,900 8 Avenue,286 W,NY-MN,4/7/16,"(40.764212000000001, -73.984544)",mn-05-139461
LINK-000552,Manhattan,104,40.764744,-73.98447,Not Ready for CX,A - Link Live,139460,907 8 Avenue,99 E,NY-MN,3/2/16,"(40.764744, -73.984470000000002)",mn-04-139460
LINK-000553,Manhattan,105,40.764823,-73.984099,Not Ready for CX,A - Link Live,122619,910 8 Avenue,328 NW,NY-MN,3/3/16,"(40.764823, -73.984099000000001)",mn-05-122619
LINK-000554,Manhattan,104,40.764934,-73.984336,Not Ready for CX,A - Link Live,122616,911 8 Avenue,88 E,NY-MN,3/3/16,"(40.764933999999997, -73.984335999999999)",mn-04-122616
LINK-000555,Manhattan,105,40.765522,-73.983593,Not Ready for CX,A - Link Live,122627,932 8 Avenue,285 W,NY-MN,3/14/16,"(40.765521999999997, -73.983592999999999)",mn-05-122627
LINK-000556,Manhattan,104,40.765604,-73.983853,Not Ready for CX,A - Link Live,122625,933 8 Avenue,128 SE,NY-MN,3/14/16,"(40.765604000000003, -73.983852999999996)",mn-04-122625
LINK-000558,Manhattan,104,40.766012,-73.983549,Not Ready for CX,A - Link Live,122623,947 8 Avenue,221 SW,NY-MN,3/4/16,"(40.766012000000003, -73.983548999999996)",mn-04-122623
LINK-000560,Manhattan,104,40.760569,-73.987529,Not Ready for CX,A - Link Live,139205,771 8 Avenue,49 NE,NY-MN,3/3/16,"(40.760568999999997, -73.987528999999995)",mn-04-139205
LINK-000562,Manhattan,104,40.759748,-73.988118,CX Complete / Link Installed,A - Link Live,122579,300 West 46Th St,90 E,NY-MN,3/5/16,"(40.759748000000002, -73.988118)",mn-04-122579
LINK-000563,Manhattan,104,40.762432,-73.986159,CX Complete / Link Installed,A - Link Live,142000,301 8 Avenue,88 E,NY-MN,4/10/16,"(40.762431999999997, -73.986159000000001)",mn-04-142000
LINK-000566,Manhattan,105,40.760895,-73.986836,CX Complete / Link Installed,A - Link Live,142002,782 8 Avenue,28 NE,NY-MN,3/10/16,"(40.760894999999998, -73.986835999999997)",mn-05-142002
LINK-000567,Manhattan,104,40.761816,-73.986606,CX Complete / Link Installed,A - Link Live,122598,825 8 Avenue,168 S,NY-MN,3/14/16,"(40.761816000000003, -73.986605999999995)",mn-04-122598
LINK-000568,Manhattan,104,40.759938,-73.987975,Not Ready for CX,A - Link Live,122580,739 8 Avenue,56 NE,NY-MN,7/12/16,"(40.759937999999998, -73.987975000000006)",mn-04-122580
LINK-000569,Manhattan,105,40.759654,-73.987773,CX Complete / Link Installed,A - Link Live,107819,740 8 Avenue,47 NE,NY-MN,3/10/16,"(40.759653999999998, -73.987773000000004)",mn-05-107819
LINK-000780,Queens,412,40.701827,-73.807661,Not Ready for CX,A - Link Live,141535,147-05 Jamaica Ave,183 S,NY-QU,8/26/16,"(40.701827000000002, -73.807660999999996)",qu-12-141535
LINK-000781,Queens,412,40.701853,-73.806477,Not Ready for CX,A - Link Live,141534,148-07 Jamaica Ave,180 S,NY-QU,8/26/16,"(40.701853, -73.806477000000001)",qu-12-141534
LINK-000785,Queens,412,40.703352,-73.799923,Not Ready for CX,A - Link Live,141549,159-02 Jamaica Ave,339 N,NY-QU,8/17/16,"(40.703352000000002, -73.799923000000007)",qu-12-141549
LINK-000789,Queens,412,40.705836,-73.793728,Not Ready for CX,A - Link Live,138109,166-02 Jamaica Ave,350 N,NY-QU,8/17/16,"(40.705835999999998, -73.793728000000002)",qu-12-138109
LINK-000793,Queens,412,40.705972,-73.793787,Not Ready for CX,A - Link Live,141550,166-01 Jamaica Ave,144 SE,NY-QU,8/26/16,"(40.705972000000003, -73.793786999999995)",qu-12-141550
LINK-000794,Queens,412,40.702693,-73.801992,Not Ready for CX,A - Link Live,142734,153-10 Jamaica Ave,335 NW,NY-QU,8/26/16,"(40.702692999999996, -73.801991999999998)",qu-12-142734
LINK-000797,Queens,412,40.703771,-73.799345,Not Ready for CX,A - Link Live,144028,159-29 Jamaica Ave,148 SE,NY-QU,8/17/16,"(40.703771000000003, -73.799345000000002)",qu-12-144028
LINK-000798,Queens,412,40.703896,-73.799018,Not Ready for CX,A - Link Live,138097,160-05 Jamaica Ave,162 S,NY-QU,8/17/16,"(40.703896, -73.799018000000004)",qu-12-138097
LINK-000801,Queens,412,40.704359,-73.797868,Not Ready for CX,A - Link Live,141537,161-21 Jamaica Ave,147 SE,NY-QU,8/17/16,"(40.704358999999997, -73.797867999999994)",qu-12-141537
LINK-000824,Manhattan,108,40.762092,-73.965806,Not Ready for CX,A - Link Live,121741,1011 3 AVENUE,122SE,NY-MN,2/20/16,"(40.762092000000003, -73.965806000000001)",mn-08-121741
LINK-000825,Manhattan,108,40.762896,-73.965443,Not Ready for CX,A - Link Live,134750,1031 3 AVENUE,295 NW,NY-MN,3/3/16,"(40.762895999999998, -73.965442999999993)",mn-08-134750
LINK-000826,Manhattan,108,40.763037,-73.965653,Not Ready for CX,A - Link Live,136989,1030 3 AVENUE,115 SE,NY-MN,2/27/16,"(40.763036999999997, -73.965653000000003)",mn-08-136989
LINK-000834,Manhattan,108,40.767309,-73.96253,Not Ready for CX,A - Link Live,120986,1172 3 AVENUE,74 E,NY-MN,4/6/16,"(40.767308999999997, -73.962530000000001)",mn-08-120986
LINK-000835,Manhattan,108,40.767231,-73.962305,Not Ready for CX,A - Link Live,120988,1175 3 AVENUE,308 NW,NY-MN,2/20/16,"(40.767231000000002, -73.962305000000001)",mn-08-120988
LINK-000836,Manhattan,108,40.767655,-73.961971,Not Ready for CX,A - Link Live,120983,1175 3 AVENUE,298 NW,NY-MN,2/20/16,"(40.767654999999998, -73.961971000000005)",mn-08-120983
LINK-000837,Manhattan,108,40.767853,-73.962256,Not Ready for CX,A - Link Live,120985,1180 3 AVENUE,27 NE,NY-MN,2/20/16,"(40.767853000000002, -73.962255999999996)",mn-08-120985
LINK-000839,Manhattan,108,40.768943,-73.960952,Not Ready for CX,A - Link Live,120995,200 E 71 ST,12 N,NY-MN,3/4/16,"(40.768943, -73.960952000000006)",mn-08-120995
LINK-000842,Manhattan,108,40.770545,-73.960254,Not Ready for CX,A - Link Live,120990,1270 3 AVENUE,186 S,NY-MN,2/21/16,"(40.770544999999998, -73.960254000000006)",mn-08-120990
LINK-000843,Manhattan,108,40.770456,-73.959928,Not Ready for CX,A - Link Live,120991,1271 E 75ST,22 NE,NY-MN,2/20/16,"(40.770456000000003, -73.959928000000005)",mn-08-120991
LINK-000849,Manhattan,108,40.772144,-73.958697,Not Ready for CX,A - Link Live,128748,1325 3 AVENUE,289 W,NY-MN,2/28/16,"(40.772143999999997, -73.958697000000001)",mn-08-128748
LINK-000850,Manhattan,108,40.772356,-73.958536,Not Ready for CX,A - Link Live,120998,1329 3 AVENUE,311 NW,NY-MN,2/27/16,"(40.772356000000002, -73.958535999999995)",mn-08-120998
LINK-000851,Manhattan,108,40.772365,-73.958948,Not Ready for CX,A - Link Live,120999,1328 3 AVENUE,8 N,NY-MN,2/28/16,"(40.772365000000001, -73.958948000000007)",mn-08-120999
LINK-000852,Manhattan,108,40.772478,-73.958769,Not Ready for CX,A - Link Live,134742,1330 3 AVENUE,98 E,NY-MN,2/27/16,"(40.772478, -73.958769000000004)",mn-08-134742
LINK-000853,Manhattan,108,40.773003,-73.958474,Not Ready for CX,A - Link Live,120997,176 E 77ST,27 NE,NY-MN,2/12/16,"(40.773003000000003, -73.958473999999995)",mn-08-120997
LINK-000854,Manhattan,108,40.772825,-73.958235,Not Ready for CX,A - Link Live,134739,1345 E 78ST,302 NW,NY-MN,4/10/16,"(40.772824999999997, -73.958235000000002)",mn-08-134739
LINK-000857,Manhattan,108,40.773727,-73.957965,Not Ready for CX,A - Link Live,121004,1374 3 AVENUE,197 S,NY-MN,3/1/16,"(40.773727000000001, -73.957965000000002)",mn-08-121004
LINK-000858,Manhattan,108,40.774207,-73.957499,Not Ready for CX,A - Link Live,121016,1388 3 AVENUE,112 E,NY-MN,3/1/16,"(40.774206999999997, -73.957498999999999)",mn-08-121016
LINK-000860,Manhattan,108,40.77435,-73.95709,Not Ready for CX,A - Link Live,121005,201 E 79ST,191 S,NY-MN,2/24/16,"(40.774349999999998, -73.957089999999994)",mn-08-121005
LINK-000862,Manhattan,108,40.774855,-73.956665,Not Ready for CX,A - Link Live,121015,1409 3 AVENUE,34 NE,NY-MN,2/12/16,"(40.774855000000002, -73.956665000000001)",mn-08-121015
LINK-000864,Manhattan,108,40.776367,-73.955933,Not Ready for CX,A - Link Live,121010,1450 3 AVENUE,125 SE,NY-MN,2/12/16,"(40.776367, -73.955933000000002)",mn-08-121010
LINK-000865,Manhattan,108,40.776833,-73.955586,Not Ready for CX,A - Link Live,121023,1460 3 AVENUE,88 E,NY-MN,2/12/16,"(40.776833000000003, -73.955585999999997)",mn-08-121023
LINK-000867,Manhattan,108,40.77702,-73.955139,Not Ready for CX,A - Link Live,134740,1475 3 AVENUE,317 NW,NY-MN,3/1/16,"(40.77702, -73.955139000000003)",mn-08-134740
LINK-000868,Manhattan,108,40.777561,-73.954752,Not Ready for CX,A - Link Live,121021,1495 3 AVENUE,327 NW,NY-MN,2/24/16,"(40.777560999999999, -73.954751999999999)",mn-08-121021
LINK-000869,Manhattan,108,40.777528,-73.955153,Not Ready for CX,A - Link Live,121020,1488 3 AVENUE,8 N,NY-MN,2/24/16,"(40.777527999999997, -73.955152999999996)",mn-08-121020
LINK-000870,Manhattan,108,40.778272,-73.954541,Not Ready for CX,A - Link Live,121017,1518 3 AVENUE,96 E,NY-MN,3/14/16,"(40.778272000000001, -73.954541000000006)",mn-08-121017
LINK-000871,Manhattan,108,40.778003,-73.954428,Not Ready for CX,A - Link Live,121019,1505 3 AVENUE,309 NW,NY-MN,3/14/16,"(40.778002999999998, -73.954427999999993)",mn-08-121019
LINK-000877,Manhattan,108,40.7786,-73.95399,Not Ready for CX,A - Link Live,107963,200 E 86ST,297 NW,NY-MN,2/24/16,"(40.778599999999997, -73.953990000000005)",mn-08-107963
LINK-000878,Manhattan,108,40.778603,-73.953717,Not Ready for CX,A - Link Live,134748,200 E 86ST,20 N,NY-MN,2/16/16,"(40.778602999999997, -73.953716999999997)",mn-08-134748
LINK-000879,Manhattan,108,40.778792,-73.953663,Not Ready for CX,A - Link Live,133368,1529 3 AVENUE,209 SW,NY-MN,4/6/16,"(40.778792000000003, -73.953663000000006)",mn-08-133368
LINK-000880,Manhattan,108,40.779038,-73.95398,Not Ready for CX,A - Link Live,119826,179 E 86ST,144 SE,NY-MN,3/1/16,"(40.779038, -73.953980000000001)",mn-08-119826
LINK-000882,Manhattan,108,40.779535,-73.953715,Not Ready for CX,A - Link Live,119825,170 E 87ST,1 N,NY-MN,2/16/16,"(40.779535000000003, -73.953715000000003)",mn-08-119825
LINK-000885,Manhattan,108,40.779635,-73.953537,Not Ready for CX,A - Link Live,138052,1550 3 AVENUE,94 E,NY-MN,2/16/16,"(40.779634999999999, -73.953536999999997)",mn-08-138052
LINK-000886,Manhattan,108,40.780782,-73.9524,Not Ready for CX,A - Link Live,119822,1585 3 AVENUE,323 NW,NY-MN,3/14/16,"(40.780782000000002, -73.952399999999997)",mn-08-119822
LINK-000887,Manhattan,108,40.781503,-73.952279,Not Ready for CX,A - Link Live,119821,181 E 90ST,301 NW,NY-MN,2/24/16,"(40.781503000000001, -73.952279000000004)",mn-08-119821
LINK-000888,Manhattan,108,40.782159,-73.951699,Not Ready for CX,A - Link Live,119833,1622 3 AVENUE,106 E,NY-MN,2/11/16,"(40.782159, -73.951699000000005)",mn-08-119833
LINK-000889,Manhattan,108,40.782768,-73.951263,Not Ready for CX,A - Link Live,119832,1644 3 AVENUE,82 E,NY-MN,2/16/16,"(40.782767999999997, -73.951262999999997)",mn-08-119832
LINK-000890,Manhattan,108,40.783285,-73.950553,Not Ready for CX,A - Link Live,119830,1675 3 AVENUE,289 W,NY-MN,6/29/16,"(40.783284999999999, -73.950552999999999)",mn-08-119830
LINK-000891,Manhattan,108,40.784663,-73.949875,Not Ready for CX,A - Link Live,119829,1700 3 AVENUE,112 E,NY-MN,2/18/16,"(40.784663000000002, -73.949875000000006)",mn-08-119829
LINK-000892,Manhattan,111,40.785818,-73.949032,Not Ready for CX,A - Link Live,120218,175 E 96 ST,91 E,NY-MN,3/1/16,"(40.785817999999999, -73.949032000000003)",mn-11-120218
LINK-000893,Manhattan,111,40.787309,-73.947944,Not Ready for CX,A - Link Live,107836,1786 3 AVENUE,71 E,NY-MN,4/10/16,"(40.787309, -73.947944000000007)",mn-11-107836
LINK-000896,Manhattan,111,40.789608,-73.946262,Not Ready for CX,A - Link Live,120214,1888 3 AVENUE,101 E,NY-MN,3/14/16,"(40.789608000000001, -73.946262000000004)",mn-11-120214
LINK-000897,Manhattan,111,40.790401,-73.945683,Not Ready for CX,A - Link Live,120226,1882 3 AVENUE,87 E,NY-MN,5/19/16,"(40.790401000000003, -73.945683000000002)",mn-11-120226
LINK-000898,Manhattan,111,40.790862,-73.945348,Not Ready for CX,A - Link Live,120225,1896 3 AVENUE,111 E,NY-MN,5/19/16,"(40.790861999999997, -73.945347999999996)",mn-11-120225
LINK-000899,Manhattan,111,40.791482,-73.944898,Not Ready for CX,A - Link Live,120224,1918 3 AVENUE,97 E,NY-MN,2/18/16,"(40.791482000000002, -73.944897999999995)",mn-11-120224
LINK-000900,Manhattan,111,40.791275,-73.944221,Not Ready for CX,A - Link Live,132877,1915 3 AVENUE,39 NE,NY-MN,3/1/16,"(40.791274999999999, -73.944220999999999)",mn-11-132877
LINK-000901,Manhattan,111,40.792394,-73.944231,Not Ready for CX,A - Link Live,143074,1950 3 AVENUE,104 E,NY-MN,3/1/16,"(40.792394000000002, -73.944231000000002)",mn-11-143074
LINK-000902,Manhattan,111,40.792292,-73.943977,Not Ready for CX,A - Link Live,120222,1945 3 AVENUE,307 NW,NY-MN,5/19/16,"(40.792292000000003, -73.943977000000004)",mn-11-120222
LINK-000903,Manhattan,111,40.793009,-73.943784,Not Ready for CX,A - Link Live,120221,1966 3 AVENUE,103 E,NY-MN,2/18/16,"(40.793008999999998, -73.943783999999994)",mn-11-120221
LINK-000904,Manhattan,111,40.794274,-73.942861,Not Ready for CX,A - Link Live,120232,2004 3 AVENUE,133 SE,NY-MN,3/3/16,"(40.794274000000001, -73.942860999999994)",mn-11-120232
LINK-000905,Manhattan,111,40.794912,-73.942398,Not Ready for CX,A - Link Live,107915,2022 3 AVENUE,97 E,NY-MN,5/23/16,"(40.794911999999997, -73.942397999999997)",mn-11-107915
LINK-000906,Manhattan,111,40.797303,-73.940337,Not Ready for CX,A - Link Live,120229,2105 3 AVENUE,289 W,NY-MN,2/17/16,"(40.797302999999999, -73.940337)",mn-11-120229
LINK-000907,Manhattan,111,40.797836,-73.940258,Not Ready for CX,A - Link Live,107218,2120 3 AVENUE,125 SE,NY-MN,3/3/16,"(40.797835999999997, -73.940258)",mn-11-107218
LINK-000908,Manhattan,111,40.797709,-73.940035,Not Ready for CX,A - Link Live,116230,2119 3 AVENUE,308 NW,NY-MN,3/3/16,"(40.797708999999998, -73.940034999999995)",mn-11-116230
LINK-000909,Manhattan,111,40.79815621,-73.94017382,Not Ready for CX,A - Link Live,120240,2126 3 AVENUE,204 SW,NY-MN,5/19/16,"(40.798156213793199, -73.9401738230424)",mn-11-120240
LINK-000911,Manhattan,111,40.801528,-73.937249,Not Ready for CX,A - Link Live,137841,2239 3 AVENUE,311 NW,NY-MN,2/24/16,"(40.801527999999998, -73.937248999999994)",mn-11-137841
LINK-000912,Manhattan,111,40.801899,-73.93729,Not Ready for CX,A - Link Live,120235,2246 3 AVENUE,100 E,NY-MN,2/18/16,"(40.801898999999999, -73.937290000000004)",mn-11-120235
LINK-000913,Manhattan,111,40.802663,-73.93672,Not Ready for CX,A - Link Live,142952,2266 3 AVENUE,129 SE,NY-MN,3/1/16,"(40.802663000000003, -73.936719999999994)",mn-11-142952
LINK-000914,Manhattan,111,40.80287,-73.93627,Not Ready for CX,A - Link Live,143437,2277 3 AVENUE,289 W,NY-MN,4/21/16,"(40.802869999999999, -73.936269999999993)",mn-11-143437
LINK-000915,Manhattan,111,40.803517,-73.93611,Not Ready for CX,A - Link Live,143675,160 E 125 ST,126 SE,NY-MN,3/1/16,"(40.803516999999999, -73.936109999999999)",mn-11-143675
LINK-000916,Manhattan,111,40.803731,-73.936139,Not Ready for CX,A - Link Live,144673,160 E 125 ST,25 NE,NY-MN,3/14/16,"(40.803730999999999, -73.936138999999997)",mn-11-144673
LINK-000918,Manhattan,108,40.765881,-73.963586,Not Ready for CX,A - Link Live,120980,1126 3 AVENUE,122 SE,NY-MN,3/13/16,"(40.765881, -73.963586000000006)",mn-08-120980
LINK-000919,Manhattan,107,40.769554,-73.981831,Not Ready for CX,A - Link Live,122843,1858 BROADWAY,18 N,NY-MN,4/30/16,"(40.769553999999999, -73.981831)",mn-07-122843
LINK-000920,Manhattan,107,40.769805,-73.981919,Not Ready for CX,A - Link Live,133501,1860 BROADWAY,275 W,NY-MN,4/30/16,"(40.769804999999998, -73.981919000000005)",mn-07-133501
LINK-000922,Manhattan,107,40.769829,-73.982482,Not Ready for CX,A - Link Live,133518,1855 BROADWAY,344 N,NY-MN,4/30/16,"(40.769829000000001, -73.982482000000005)",mn-07-133518
LINK-000926,Manhattan,107,40.774723,-73.982001,Not Ready for CX,A - Link Live,121339,1992 BROADWAY,311 NW,NY-MN,4/15/16,"(40.774723000000002, -73.982000999999997)",mn-07-121339
LINK-000928,Manhattan,107,40.774894,-73.982571,Not Ready for CX,A - Link Live,133488,1972 BROADWAY,199 S,NY-MN,4/15/16,"(40.774894000000003, -73.982570999999993)",mn-07-133488
LINK-000929,Manhattan,107,40.774757,-73.982507,Not Ready for CX,A - Link Live,134275,1967 BROADWAY,15 N,NY-MN,4/15/16,"(40.774757000000001, -73.982506999999998)",mn-07-134275
LINK-000930,Manhattan,107,40.774646,-73.982408,Not Ready for CX,A - Link Live,134274,1967 BROADWAY,77 E,NY-MN,4/13/16,"(40.774645999999997, -73.982408000000007)",mn-07-134274
LINK-000932,Manhattan,107,40.77539,-73.981829,Not Ready for CX,A - Link Live,121337,2008 BROADWAY,224 SW,NY-MN,4/28/16,"(40.775390000000002, -73.981829000000005)",mn-07-121337
LINK-000939,Manhattan,107,40.776474,-73.982429,Not Ready for CX,A - Link Live,133487,2029 BROADWAY,206 SW,NY-MN,4/23/16,"(40.776474, -73.982428999999996)",mn-07-133487
LINK-000942,Manhattan,107,40.777137,-73.981899,Not Ready for CX,A - Link Live,121335,2040 BROADWAY,302 NW,NY-MN,4/13/16,"(40.777137000000003, -73.981898999999999)",mn-07-121335
LINK-000945,Manhattan,107,40.778607,-73.98218,Not Ready for CX,A - Link Live,108166,2077 BROADWAY,104 E,NY-MN,4/25/16,"(40.778607000000001, -73.98218)",mn-07-108166
LINK-000946,Manhattan,107,40.779099,-73.982074,Not Ready for CX,A - Link Live,133403,2085 BROADWAY,80 E,NY-MN,4/20/16,"(40.779099000000002, -73.982073999999997)",mn-07-133403
LINK-000947,Manhattan,107,40.779331,-73.981991,Not Ready for CX,A - Link Live,133410,2095 BROADWAY,75 E,NY-MN,3/24/16,"(40.779330999999999, -73.981990999999994)",mn-07-133410
LINK-000951,Manhattan,107,40.780321,-73.981309,Not Ready for CX,A - Link Live,133408,2120 BROADWAY,318 NW,NY-MN,4/25/16,"(40.780321000000001, -73.981308999999996)",mn-07-133408
LINK-000952,Manhattan,107,40.780825,-73.981168,Not Ready for CX,A - Link Live,133406,2130 BROADWAY,307 NW,NY-MN,4/21/16,"(40.780825, -73.981167999999997)",mn-07-133406
LINK-000955,Manhattan,107,40.780993,-73.981524,Not Ready for CX,A - Link Live,121315,2135 BROADWAY,101 E,NY-MN,3/31/16,"(40.780993000000002, -73.981523999999993)",mn-07-121315
LINK-000957,Manhattan,107,40.781474,-73.980961,Not Ready for CX,A - Link Live,109544,2150 BROADWAY,284 W,NY-MN,4/6/16,"(40.781474000000003, -73.980960999999994)",mn-07-109544
LINK-000958,Manhattan,107,40.781694,-73.980793,Not Ready for CX,A - Link Live,121223,2160 BROADWAY,240 SW,NY-MN,4/28/16,"(40.781694000000002, -73.980793000000006)",mn-07-121223
LINK-000959,Manhattan,107,40.781843,-73.980833,Not Ready for CX,A - Link Live,133404,2160 BROADWAY,291 W,NY-MN,5/17/16,"(40.781843000000002, -73.980833000000004)",mn-07-133404
LINK-000963,Manhattan,107,40.782528,-73.980586,Not Ready for CX,A - Link Live,121221,2182 BROADWAY,295 NW,NY-MN,5/19/16,"(40.782527999999999, -73.980586000000002)",mn-07-121221
LINK-000968,Manhattan,107,40.783191,-73.980253,Not Ready for CX,A - Link Live,121232,2200 BROADWAY,319 NW,NY-MN,4/15/16,"(40.783191000000002, -73.980253000000005)",mn-07-121232
LINK-000971,Manhattan,107,40.78392,-73.979708,Not Ready for CX,A - Link Live,121229,2220 BROADWAY,312 NW,NY-MN,9/7/16,"(40.783920000000002, -73.979708000000002)",mn-07-121229
LINK-000978,Manhattan,107,40.785005,-73.978781,Not Ready for CX,A - Link Live,121239,2252 BROADWAY,24 NE,NY-MN,4/18/16,"(40.785004999999998, -73.978780999999998)",mn-07-121239
LINK-000985,Manhattan,107,40.785813,-73.978293,Not Ready for CX,A - Link Live,121302,2282 BROADWAY,330 NW,NY-MN,3/31/16,"(40.785812999999997, -73.978292999999994)",mn-07-121302
LINK-000987,Manhattan,107,40.78622,-73.977987,Not Ready for CX,A - Link Live,133415,2298 BROADWAY,321 NW,NY-MN,3/31/16,"(40.78622, -73.977986999999999)",mn-07-133415
LINK-000989,Manhattan,107,40.786204,-73.977693,Not Ready for CX,A - Link Live,136212,222 BROADWAY,12 N,NY-MN,3/25/16,"(40.786203999999998, -73.977693000000002)",mn-07-136212
LINK-000991,Manhattan,107,40.786403,-73.9783,Not Ready for CX,A - Link Live,121304,2299 BROADWAY,106 E,NY-MN,3/24/16,"(40.786403, -73.978300000000004)",mn-07-121304
LINK-000995,Manhattan,107,40.786896,-73.977483,Not Ready for CX,A - Link Live,121247,2310 BROADWAY,320 NW,NY-MN,4/15/16,"(40.786895999999999, -73.977483000000007)",mn-07-121247
LINK-000997,Manhattan,107,40.788006,-73.976545,Not Ready for CX,A - Link Live,107814,2350 BROADWAY,335 NW,NY-MN,7/21/16,"(40.788006000000003, -73.976545000000002)",mn-07-107814
LINK-001006,Bronx,204,40.819886,-73.926847,Not Ready for CX,A - Link Live,140582,597 GRAND CONCOURSE,110 E,NY-BX,6/2/16,"(40.819885999999997, -73.926846999999995)",bx-04-140582
LINK-001122,Queens,409,40.71317,-73.829803,Not Ready for CX,A - Link Live,128371,80-55 KEW GARDENS ROAD,219 SW,NY-QU,7/19/16,"(40.713169999999998, -73.829802999999998)",qu-09-128371
LINK-001123,Queens,406,40.717664,-73.836262,Not Ready for CX,A - Link Live,124182,112-28 QUEENS BLVD,8 N,NY-QU,7/19/16,"(40.717663999999999, -73.836262000000005)",qu-06-124182
LINK-001125,Queens,406,40.719293,-73.839741,Not Ready for CX,A - Link Live,124180,110-44 QUEENS BLVD,4 N,NY-QU,7/19/16,"(40.719293, -73.839741000000004)",qu-06-124180
LINK-001354,Bronx,207,40.867362,-73.897624,Not Ready for CX,A - Link Live,119760,2663 Jerome Ave,121 SE,NY-BX,6/29/16,"(40.867362, -73.897623999999993)",bx-07-119760
LINK-001363,Bronx,204,40.839445,-73.915848,Not Ready for CX,A - Link Live,119157,96 East 170 street,103 E,NY-BX,5/31/16,"(40.839444999999998, -73.915847999999997)",bx-04-119157
LINK-001365,Bronx,205,40.857756,-73.901091,Not Ready for CX,A - Link Live,102420,126 East 183 street,22 N,NY-BX,5/11/16,"(40.857756000000002, -73.901090999999994)",bx-05-102420
LINK-001488,Manhattan,107,40.790899,-73.974297,Not Ready for CX,A - Link Live,121255,2440 Broadway,325 NW,NY-MN,5/19/16,"(40.790899000000003, -73.974297000000007)",mn-07-121255
LINK-001490,Manhattan,107,40.790818,-73.97481,Not Ready for CX,A - Link Live,121295,2431 Broadway,34 NE,NY-MN,5/26/16,"(40.790818000000002, -73.974810000000005)",mn-07-121295
LINK-001492,Manhattan,107,40.791401,-73.973822,Not Ready for CX,A - Link Live,121254,215 West 91st,224 SW,NY-MN,6/22/16,"(40.791401, -73.973821999999998)",mn-07-121254
LINK-001495,Manhattan,107,40.791943,-73.973425,Not Ready for CX,A - Link Live,121253,214 West 92st,23 NE,NY-MN,5/26/16,"(40.791943000000003, -73.973425000000006)",mn-07-121253
LINK-001502,Manhattan,107,40.79382,-73.972036,Not Ready for CX,A - Link Live,107918,230 West 95 Street,28 NE,NY-MN,5/26/16,"(40.793819999999997, -73.972036000000003)",mn-07-107918
LINK-001503,Manhattan,107,40.794041,-73.972568,Not Ready for CX,A - Link Live,120596,250 West 95 Street,43 NE,NY-MN,5/19/16,"(40.794041, -73.972567999999995)",mn-07-120596
LINK-001507,Manhattan,107,40.795171,-73.971048,Not Ready for CX,A - Link Live,120513,230 West 97 Street,16 N,NY-MN,5/26/16,"(40.795171000000003, -73.971047999999996)",mn-07-120513
LINK-001543,Manhattan,107,40.796762,-73.970651,Not Ready for CX,A - Link Live,107801,243 Broadway,195 S,NY-MN,7/8/16,"(40.796762000000001, -73.970651000000004)",mn-07-107801
LINK-001546,Manhattan,107,40.797148,-73.96963,Not Ready for CX,A - Link Live,120510,219 West 100 st,212 SW,NY-MN,8/12/16,"(40.797148, -73.969629999999995)",mn-07-120510
LINK-001556,Manhattan,107,40.798954,-73.968326,Not Ready for CX,A - Link Live,120393,216 West 103st,25 NE,NY-MN,6/17/16,"(40.798954000000002, -73.968326000000005)",mn-07-120393
LINK-001557,Manhattan,107,40.79933,-73.96823,Not Ready for CX,A - Link Live,107810,2704 Broadway,315 NW,NY-MN,6/9/16,"(40.799329999999998, -73.968230000000005)",mn-07-107810
LINK-001595,Manhattan,107,40.800581,-73.967782,Not Ready for CX,A - Link Live,120391,2740 Broadway,281 W,NY-MN,6/22/16,"(40.800581000000001, -73.967782)",mn-07-120391
LINK-001600,Manhattan,107,40.802126,-73.967493,Not Ready for CX,A - Link Live,120402,249 West 107 Street,229 SW,NY-MN,5/19/16,"(40.802126000000001, -73.967493000000005)",mn-07-120402
LINK-001602,Manhattan,107,40.802455,-73.968149,Not Ready for CX,A - Link Live,120266,2781 Broadway,108 E,NY-MN,5/19/16,"(40.802455000000002, -73.968148999999997)",mn-07-120266
LINK-001604,Manhattan,107,40.802944,-73.967379,Not Ready for CX,A - Link Live,120401,2800 Broadway,316 NW,NY-MN,5/26/16,"(40.802943999999997, -73.967378999999994)",mn-07-120401
LINK-001605,Manhattan,107,40.803721,-73.967381,Not Ready for CX,A - Link Live,120268,301 West 109st,204 SW,NY-MN,6/10/16,"(40.803721000000003, -73.967381000000003)",mn-07-120268
LINK-001612,Manhattan,109,40.805472,-73.965526,Not Ready for CX,A - Link Live,120409,2880 Broadway,305 NW,NY-MN,6/9/16,"(40.805472000000002, -73.965525999999997)",mn-09-120409
LINK-001675,Manhattan,106,40.75096,-73.974135,Not Ready for CX,A - Link Live,133439,675 3rd Ave,,NY-MN,7/14/16,"(40.750959999999999, -73.974135000000004)",mn-06-133439
LINK-001676,Manhattan,109,40.805923,-73.965081,Not Ready for CX,A - Link Live,120408,562 West 113 Street,26 NE,NY-MN,5/26/16,"(40.805923, -73.965080999999998)",mn-09-120408
LINK-001678,Manhattan,109,40.820281,-73.955267,Not Ready for CX,A - Link Live,120374,601 West 135 Street,135 SE,NY-MN,6/10/16,"(40.820281000000001, -73.955267000000006)",mn-09-120374
LINK-001680,Manhattan,109,40.82077,-73.954821,Not Ready for CX,A - Link Live,120365,3359 Broadway,112 E,NY-MN,6/10/16,"(40.820770000000003, -73.954820999999995)",mn-09-120365
LINK-001682,Manhattan,109,40.822319,-73.953676,Not Ready for CX,A - Link Live,111128,3407 Broadway,147 SE,NY-MN,6/17/16,"(40.822319, -73.953676000000002)",mn-09-111128
LINK-001683,Manhattan,109,40.822495,-73.953007,Not Ready for CX,A - Link Live,120419,572 West 139 Street,40 NE,NY-MN,5/10/16,"(40.822495000000004, -73.953006999999999)",mn-09-120419
LINK-001684,Manhattan,109,40.823326,-73.953041,Not Ready for CX,A - Link Live,120371,600 West 140 Street,308 NW,NY-MN,6/2/16,"(40.823326000000002, -73.953040999999999)",mn-09-120371
LINK-001688,Manhattan,109,40.808039,-73.964212,Not Ready for CX,A - Link Live,120262,600 West 116st,28 NE,NY-MN,5/19/16,"(40.808039000000001, -73.964212000000003)",mn-09-120262
LINK-001689,Manhattan,109,40.807508,-73.964488,Not Ready for CX,A - Link Live,137848,2943 Broadway,109 E,NY-MN,8/12/16,"(40.807507999999999, -73.964488000000003)",mn-09-137848
LINK-001695,Manhattan,109,40.824559,-73.951597,Not Ready for CX,A - Link Live,111652,3480 Broadway,337 NW,NY-MN,5/26/16,"(40.824559000000001, -73.951597000000007)",mn-09-111652
LINK-001696,Manhattan,109,40.825091,-73.951659,Not Ready for CX,A - Link Live,120360,3497 Broadway,136 SE,NY-MN,6/2/16,"(40.825091, -73.951659000000006)",mn-09-120360
LINK-001699,Manhattan,109,40.825508,-73.950907,Not Ready for CX,A - Link Live,111954,3514 Broadway,178 S,NY-MN,5/31/16,"(40.825507999999999, -73.950907000000001)",mn-09-111954
LINK-001702,Manhattan,109,40.82609,-73.950482,Not Ready for CX,A - Link Live,111651,3536 Broadway,237 SW,NY-MN,6/22/16,"(40.826090000000001, -73.950481999999994)",mn-09-111651
LINK-001773,Bronx,207,40.867627,-73.89873,Not Ready for CX,A - Link Live,119873,26 West Kingsbridge Rd,14 N,NY-BX,6/2/16,"(40.867626999999999, -73.89873)",bx-07-119873
LINK-001774,Bronx,207,40.867828,-73.899576,Not Ready for CX,A - Link Live,119874,56 West Kingsbridge Road,21 N,NY-BX,6/29/16,"(40.867828000000003, -73.899575999999996)",bx-07-119874
LINK-001777,Bronx,205,40.862314,-73.900316,Not Ready for CX,A - Link Live,119573,2454 Walton Ave,307 NW,NY-BX,8/25/16,"(40.862313999999998, -73.900316000000004)",bx-05-119573
LINK-001780,Bronx,205,40.86063,-73.902369,Not Ready for CX,A - Link Live,119606,2374 Jerome Ave,258 W,NY-BX,6/2/16,"(40.86063, -73.902368999999993)",bx-05-119606
LINK-001785,Bronx,204,40.831467,-73.921747,Not Ready for CX,A - Link Live,119048,105 East 165 Street,183 S,NY-BX,5/9/16,"(40.831467000000004, -73.921746999999996)",bx-04-119048
LINK-001787,Bronx,205,40.853042,-73.905553,Not Ready for CX,A - Link Live,119590,104 East Burnside Ave,16 N,NY-BX,5/31/16,"(40.853042000000002, -73.905552999999998)",bx-05-119590
LINK-001788,Bronx,205,40.853157,-73.905403,Not Ready for CX,A - Link Live,119592,101 East Burnside Ave,208 SW,NY-BX,5/24/16,"(40.853157000000003, -73.905403000000007)",bx-05-119592
LINK-001792,Bronx,204,40.818942,-73.92837,Not Ready for CX,A - Link Live,119146,135 East 149st,262 W,NY-BX,5/9/16,"(40.818942, -73.928370000000001)",bx-04-119146
LINK-001820,Queens,412,40.706357,-73.792205,Not Ready for CX,A - Link Live,141553,168-06 Jamaica Ave,350 N,NY-QU,8/17/16,"(40.706356999999997, -73.792204999999996)",qu-12-141553
LINK-001821,Queens,412,40.706507,-73.792368,Not Ready for CX,A - Link Live,141536,168-03 Jamaica Ave,155 SE,NY-QU,8/17/16,"(40.706507000000002, -73.792367999999996)",qu-12-141536
LINK-001827,Queens,406,40.715758,-73.833513,Not Ready for CX,A - Link Live,124184,116-12 Queens Blvd,303 NW,NY-QU,7/19/16,"(40.715758000000001, -73.833512999999996)",qu-06-124184
LINK-002058,Manhattan,109,40.827321,-73.950028,Not Ready for CX,A - Link Live,111986,3569 Broadway,66 NE,NY-MN,7/13/16,"(40.827320999999998, -73.950028000000003)",mn-09-111986
LINK-002059,Manhattan,109,40.827932,-73.949581,Not Ready for CX,A - Link Live,111985,3581 Broadway,116 SE,NY-MN,7/14/16,"(40.827931999999997, -73.949580999999995)",mn-09-111985
LINK-002061,Manhattan,109,40.82758,-73.949288,Not Ready for CX,A - Link Live,120434,546 WEST 147ST,13 N,NY-MN,7/30/16,"(40.827579999999998, -73.949287999999996)",mn-09-120434
LINK-002062,Manhattan,109,40.828097,-73.949017,Not Ready for CX,A - Link Live,111874,3596 Broadway,312 NW,NY-MN,7/13/16,"(40.828097, -73.949016999999998)",mn-09-111874
LINK-002064,Manhattan,109,40.828543,-73.949135,Not Ready for CX,A - Link Live,120352,3601 Broadway,104 E,NY-MN,7/11/16,"(40.828543000000003, -73.949134999999998)",mn-09-120352
LINK-002065,Manhattan,109,40.829037,-73.948869,Not Ready for CX,A - Link Live,120354,600 West 149st,359 N,NY-MN,7/14/16,"(40.829037, -73.948869000000002)",mn-09-120354
LINK-002068,Manhattan,109,40.829675,-73.947866,Not Ready for CX,A - Link Live,102722,3642 BROADWAY,300 NW,NY-MN,7/11/16,"(40.829675000000002, -73.947866000000005)",mn-09-102722
LINK-002070,Manhattan,109,40.830208,-73.947909,Not Ready for CX,A - Link Live,120356,3659 Broadway,78 E,NY-MN,7/14/16,"(40.830207999999999, -73.947908999999996)",mn-09-120356
LINK-002072,Manhattan,109,40.830586,-73.947195,Not Ready for CX,A - Link Live,111931,3670 Broadway,305 NW,NY-MN,7/10/16,"(40.830585999999997, -73.947194999999994)",mn-09-111931
LINK-002073,Manhattan,109,40.830876,-73.946986,Not Ready for CX,A - Link Live,111936,3680 BROADWAY,305 NW,NY-MN,7/21/16,"(40.830876000000004, -73.946985999999995)",mn-09-111936
LINK-002084,Manhattan,112,40.836501,-73.942787,Not Ready for CX,A - Link Live,120445,581 WEST 161 STREET,17 N,NY-MN,7/7/16,"(40.836500999999998, -73.942786999999996)",mn-12-120445
LINK-002677,Manhattan,101,40.718036,-74.001021,Not Ready for CX,A - Link Live,122319,106 LAFAYETTE STREET,137 SE,NY-MN,8/10/16,"(40.718035999999998, -74.001020999999994)",mn-01-122319
LINK-002678,Manhattan,101,40.717828,-74.000962,Not Ready for CX,A - Link Live,137165,101 LAFAYETTE STREET,332 NW,NY-MN,7/30/16,"(40.717827999999997, -74.000962000000001)",mn-01-137165
LINK-002679,Manhattan,101,40.717484,-74.001523,Not Ready for CX,A - Link Live,137940,90 LAFAYETTE STREET,130 SE,NY-MN,7/11/16,"(40.717483999999999, -74.001523000000006)",mn-01-137940
LINK-002680,Manhattan,101,40.717243,-74.001743,Not Ready for CX,A - Link Live,137333,80 LAFAYETTE STREET,70 E,NY-MN,7/12/16,"(40.717243000000003, -74.001743000000005)",mn-01-137333
LINK-002682,Manhattan,101,40.716033,-74.00257,Not Ready for CX,A - Link Live,123431,45 LAFAYETTE STREET,331 NW,NY-MN,7/11/16,"(40.716033000000003, -74.002570000000006)",mn-01-123431
LINK-003015,Manhattan,103,40.731157,-73.985928,Not Ready for CX,A - Link Live,115305,193 2 AVENUE,125 SE,NY-MN,6/29/16,"(40.731157000000003, -73.985928000000001)",mn-03-115305
LINK-003226,Manhattan,103,40.73108,-73.985739,Not Ready for CX,A - Link Live,138575,192 2 AVENUE,308 NW,NY-MN,7/6/16,"(40.731079999999999, -73.985738999999995)",mn-03-138575
LINK-003227,Manhattan,103,40.730539,-73.986394,Not Ready for CX,A - Link Live,138573,175 2 AVENUE,121 SE,NY-MN,7/8/16,"(40.730539, -73.986394000000004)",mn-03-138573
LINK-003228,Manhattan,103,40.730881,-73.985882,Not Ready for CX,A - Link Live,123270,190 2 AVENUE,312 NW,NY-MN,6/29/16,"(40.730880999999997, -73.985882000000004)",mn-03-123270
LINK-003229,Manhattan,103,40.730249,-73.986348,Not Ready for CX,A - Link Live,123269,170 2 AVENUE,311 NW,NY-MN,7/8/16,"(40.730249000000001, -73.986348000000007)",mn-03-123269
LINK-003232,Manhattan,103,40.72848,-73.987875,Not Ready for CX,A - Link Live,131017,131 2 AVENUE,106 E,NY-MN,8/31/16,"(40.728479999999998, -73.987875000000003)",mn-03-131017
LINK-003234,Manhattan,103,40.72824,-73.987837,Not Ready for CX,A - Link Live,128751,124 2 AVENUE,302 NW,NY-MN,7/19/16,"(40.72824, -73.987836999999999)",mn-03-128751
LINK-003235,Manhattan,103,40.728027,-73.987965,Not Ready for CX,A - Link Live,123814,118 2 AVENUE,310 NW,NY-MN,7/19/16,"(40.728026999999997, -73.987965000000003)",mn-03-123814
LINK-003237,Manhattan,103,40.72746,-73.988372,Not Ready for CX,A - Link Live,123273,104 2 AVENUE,311 NW,NY-MN,8/31/16,"(40.727460000000001, -73.988371999999998)",mn-03-123273
LINK-003241,Manhattan,103,40.726049,-73.989403,Not Ready for CX,A - Link Live,137382,68 2 AVENUE,299 NW,NY-MN,8/31/16,"(40.726049000000003, -73.989402999999996)",mn-03-137382
LINK-003242,Manhattan,103,40.725641,-73.989698,Not Ready for CX,A - Link Live,123820,54 2 AVENUE,304 NW,NY-MN,8/31/16,"(40.725641000000003, -73.989698000000004)",mn-03-123820
LINK-003244,Manhattan,103,40.721716,-73.993343,Not Ready for CX,A - Link Live,108238,217 BOWERY,285 W,NY-MN,7/20/16,"(40.721716000000001, -73.993342999999996)",mn-03-108238
LINK-003247,Manhattan,102,40.720597,-73.994078,Not Ready for CX,A - Link Live,100727,178 BOWERY,111 E,NY-MN,7/11/16,"(40.720596999999998, -73.994078000000002)",mn-02-100727
LINK-003249,Manhattan,103,40.719905,-73.994058,Not Ready for CX,A - Link Live,108589,169 BOWERY,299 NW,NY-MN,7/11/16,"(40.719904999999997, -73.994057999999995)",mn-03-108589
LINK-003917,Manhattan,107,40.803579,-73.966917,Not Ready for CX,A - Link Live,120400,2820 BROADWAY,,NY-MN,6/10/16,"(40.803578999999999, -73.966916999999995)",mn-07-120400
LINK-003918,Manhattan,109,40.804835,-73.965995,Not Ready for CX,A - Link Live,120396,2858 BROADWAY,,NY-MN,6/22/16,"(40.804834999999997, -73.965995000000007)",mn-09-120396
LINK-004816,Manhattan,109,40.809965,-73.958889,Not Ready for CX,A - Link Live,120545,1238 AMSTERDAM AVENUE,94 E,NY-MN,7/29/16,"(40.809964999999998, -73.958888999999999)",mn-09-120545
LINK-004817,Manhattan,109,40.810163,-73.958744,Not Ready for CX,A - Link Live,142793,1244 AMSTERDAM AVENUE,106 E,NY-MN,7/29/16,"(40.810163000000003, -73.958743999999996)",mn-09-142793
LINK-004818,Manhattan,109,40.810378,-73.958321,Not Ready for CX,A - Link Live,142953,1253 AMSTERDAM AVENUE,313 NW,NY-MN,8/4/16,"(40.810378, -73.958320999999998)",mn-09-142953
LINK-004821,Manhattan,109,40.813669,-73.95619,Not Ready for CX,A - Link Live,136200,1340 AMSTERDAM AVENUE,115 SE,NY-MN,8/16/16,"(40.813668999999997, -73.956190000000007)",mn-09-136200
LINK-005211,Manhattan,109,40.818371,-73.952755,Not Ready for CX,A - Link Live,111948,1500 AMSTERDAM AVENUE,131 SE,NY-MN,7/13/16,"(40.818370999999999, -73.952754999999996)",mn-09-111948
LINK-005212,Manhattan,109,40.8196,-73.951942,Not Ready for CX,A - Link Live,120561,502 WEST 136 STREET,30 NE,NY-MN,7/9/16,"(40.819600000000001, -73.951942000000003)",mn-09-120561
LINK-005221,Manhattan,109,40.825947,-73.946952,Not Ready for CX,A - Link Live,120576,1739 AMSTERDAM AVENUE,315 NW,NY-MN,7/13/16,"(40.825946999999999, -73.946951999999996)",mn-09-120576
LINK-005426,Bronx,204,40.827549,-73.925904,Not Ready for CX,A - Link Live,119160,52 EAST 161 STREET,,NY-BX,8/12/16,"(40.827548999999998, -73.925904000000003)",bx-04-119160
LINK-005427,Bronx,204,40.827355,-73.925223,Not Ready for CX,A - Link Live,119159,72 EAST 161 STREET,358 N,NY-BX,6/24/16,"(40.827354999999997, -73.925223000000003)",bx-04-119159
LINK-005430,Bronx,204,40.827828,-73.924842,Not Ready for CX,A - Link Live,113552,875 GERARD AVENUE,91 E,NY-BX,6/29/16,"(40.827827999999997, -73.924841999999998)",bx-04-113552
LINK-005877,Manhattan,109,40.824578,-73.952134,Not Ready for CX,A - Link Live,120359,600 WEST 142 STREET,,NY-MN,7/5/16,"(40.824578000000002, -73.952134000000001)",mn-09-120359
LINK-005878,Manhattan,109,40.822703,-73.953499,Not Ready for CX,A - Link Live,120370,600 WEST 139 STREET,,NY-MN,7/5/16,"(40.822702999999997, -73.953498999999994)",mn-09-120370
LINK-005879,Manhattan,109,40.821918,-73.95331,Not Ready for CX,A - Link Live,120422,551 WEST 138 STREET,,NY-MN,7/10/16,"(40.821917999999997, -73.953310000000002)",mn-09-120422
LINK-005882,Manhattan,109,40.814496,-73.95935,Not Ready for CX,A - Link Live,136680,3153 BROADWAY,103 E,NY-MN,7/9/16,"(40.814495999999998, -73.959350000000001)",mn-09-136680
LINK-005931,Manhattan,109,40.805516,-73.966052,Not Ready for CX,A - Link Live,120269,602 WEST 112 STREET,,NY-MN,6/30/16,"(40.805515999999997, -73.966052000000005)",mn-09-120269
LINK-006026,Manhattan,111,40.799507,-73.939041,Not Ready for CX,A - Link Live,107943,2166 3RD AVENUE,120 SE,NY-MN,5/23/16,"(40.799506999999998, -73.939041000000003)",mn-11-107943
LINK-006027,Manhattan,111,40.791202,-73.944781,Not Ready for CX,A - Link Live,132876,1915 3RD AVENUE,300 NW,NY-MN,5/19/16,"(40.791201999999998, -73.944781000000006)",mn-11-132876
LINK-006029,Manhattan,109,40.809412,-73.959029,Not Ready for CX,A - Link Live,120546,1221 AMSTERDAM AVE,,NY-MN,7/27/16,"(40.809412000000002, -73.959029000000001)",mn-09-120546
LINK-006031,Manhattan,109,40.817656,-73.953007,Not Ready for CX,A - Link Live,120563,1481 AMSTERDAM AVENUE,,NY-MN,7/30/16,"(40.817655999999999, -73.953006999999999)",mn-09-120563
LINK-006032,Manhattan,109,40.827193,-73.946443,Not Ready for CX,A - Link Live,100231,500 WEST 148 STREET,10 N,NY-MN,7/18/16,"(40.827193000000001, -73.946443000000002)",mn-09-100231
LINK-006033,Manhattan,109,40.827195,-73.946043,Not Ready for CX,A - Link Live,120573,1781 AMSTERDAM AVE,302 NW,NY-MN,7/18/16,"(40.827195000000003, -73.946043000000003)",mn-09-120573
LINK-006035,Manhattan,109,40.830367,-73.943722,Not Ready for CX,A - Link Live,131062,1881 AMSTERDAM AVE,301 NW,NY-MN,7/18/16,"(40.830367000000003, -73.943721999999994)",mn-09-131062
LINK-006037,Manhattan,112,40.832283,-73.942327,Not Ready for CX,A - Link Live,120463,1941 AMSTERDAM AVE,314 NW,NY-MN,7/12/16,"(40.832282999999997, -73.942327000000006)",mn-12-120463
LINK-006038,Manhattan,112,40.832732,-73.942268,Not Ready for CX,A - Link Live,111956,1952 AMSTERDAM AVE,134 SE,NY-MN,7/14/16,"(40.832732, -73.942267999999999)",mn-12-111956
LINK-006039,Manhattan,112,40.833447,-73.94174,Not Ready for CX,A - Link Live,120460,1976 AMSTERDAM AVE,,NY-MN,7/14/16,"(40.833447, -73.941739999999996)",mn-12-120460
LINK-006040,Manhattan,112,40.833861,-73.941447,Not Ready for CX,A - Link Live,100263,1988 AMSTERDAM AVE,127 SE,NY-MN,7/13/16,"(40.833860999999999, -73.941446999999997)",mn-12-100263
LINK-006041,Manhattan,112,40.834247,-73.941163,Not Ready for CX,A - Link Live,111803,2002 AMSTERDAM AVE,133 SE,NY-MN,7/14/16,"(40.834246999999998, -73.941163000000003)",mn-12-111803
LINK-006042,Manhattan,112,40.834078,-73.940919,Not Ready for CX,A - Link Live,120458,481 WEST 159 STREET,220 SW,NY-MN,7/14/16,"(40.834077999999998, -73.940918999999994)",mn-12-120458
LINK-006043,Manhattan,112,40.834815,-73.940477,Not Ready for CX,A - Link Live,120457,2017 AMSTERDAM AVE,,NY-MN,7/13/16,"(40.834814999999999, -73.940477000000001)",mn-12-120457
LINK-006150,Manhattan,107,40.798535,-73.969281,Not Ready for CX,A - Link Live,120273,240 WEST 102 STREET,,NY-MN,7/20/16,"(40.798535000000001, -73.969280999999995)",mn-07-120273
LINK-006861,Queens,406,40.718602,-73.838184,Not Ready for CX,A - Link Live,124181,110-88 QUEENS BLVD,,NY-QU,7/19/16,"(40.718601999999997, -73.838183999999998)",qu-06-124181
LINK-007143,Manhattan,107,40.777227,-73.982777,Not Ready for CX,A - Link Live,121203,222 AMSTERDAM AVE,74 E,NY-MN,7/18/16,"(40.777227000000003, -73.982776999999999)",mn-07-121203
LINK-007145,Manhattan,107,40.775999,-73.983247,Not Ready for CX,A - Link Live,138046,155 WEST 68 STREET,214 SW,NY-MN,7/14/16,"(40.775998999999999, -73.983247000000006)",mn-07-138046
LINK-007147,Manhattan,107,40.776066,-73.983627,Not Ready for CX,A - Link Live,121193,174 AMSTERDAM AVE,114 SE,NY-MN,7/12/16,"(40.776066, -73.983626999999998)",mn-07-121193
LINK-007876,Manhattan,108,40.773006,-73.958069,Not Ready for CX,A - Link Live,120996,1349 3 AVENUE,306 NW,NY-MN,7/6/16,"(40.773006000000002, -73.958068999999995)",mn-08-120996
LINK-008229,Manhattan,103,40.721425,-73.993454,Not Ready for CX,A - Link Live,100726,211 BOWERY,264 W,NY-MN,7/20/16,"(40.721425000000004, -73.993454)",mn-03-100726
LINK-008230,Manhattan,103,40.717924,-73.994956,Not Ready for CX,A - Link Live,108422,113 BOWERY,299 NW,NY-MN,8/10/16,"(40.717923999999996, -73.994956000000002)",mn-03-108422