Name,Address,Latitude,Longitude
Robert Bendheim Playground,E. 100th St. at 5th Avenue,48.8632856,-99.622883
Conservatory Garden,105 Street at 5th Avenue,40.7936129,-73.9515972
Model Boathouse (Kerbs) Cafe at Conservatory Water,E. 74th near 5th Avenue,29.9368369,30.9217914
Washington Square Park,Washington Sq South & Thompson St.,42.7312423,-84.5522893
Lasker Skating Rink,"106th, Mid~Park",40.79612,-73.954884
Merchants Gate,W. 61st and Central Park West,40.7692978,-73.9810471
North Meadow Recreation Center,"97th Street Transverse Road, Central Park",40.7904585,-73.9597062
Bethesda Terrace,72nd Street Mid~Park,40.773851,-73.970849
Central Park Zoo,E. 64th near 5th,35.537612,-97.5745286
Dana Discovery Center,110th Street at Lenox Avenue,40.7982157,-73.9523666
Bryant Park,42nd St. between 5th and 6th Avenue,29.9069377,30.9042268
Tennis House,94th Street Mid~Park,40.789889,-73.961839
Ramble Shed,79th Street Mid~Park,40.7100991,-73.8736068
The Arsenal,E. 64th St. at 5th Avenue,40.767644,-73.97126
Great Hill,W. 106th St.,40.797011,-73.958974
Heckscher House,"Heckscher Playground, 62nd St. Mid~Park",40.699645,-73.156632
Wollman Skating Rink,E. 63rd near East Drive,40.767767,-73.974498
Delacorte Theatre,W. 81st at Turtle Pond,40.78029,-73.968843
Rockfeller Center Lower Floor,49st St. between 5th and 6th Aves.,40.758871,-73.978656
Grand Central Station Public Restroom,Near 42nd St and Park Ave,40.7752549,-74.020156
Carl Schurz Park,87th Street and East End Avenue,40.7756171,-73.9442821
Tavern on the Green,W. 66th St and Central Park West,40.7724388,-73.978741
SAKS Fifth Avenue,611 Fifth Avenue,40.758045,-73.9769745
Barneys New York,660 Madison Ave.,42.6569096,-73.7755431
Old Navy,503~511 Broadway,40.7224829,-73.9995839
Ancient Playground,E. 85 St. off 5th Avenue.,40.7372973,-73.9921861
South Street Seaport Mall,19 Fulton St.,37.7797643,-122.4153467
"World Financial Center, Winter Garden",West St.,40.7222399,-74.0118717
Long Island Railroad,Penn Station,40.730542,-73.869241
Washington Square Park Bathrooms,"Washington Square Park , West 4th St. and Sullivan St.",40.730329,-73.998058
Penn Station Public Restroom,Penn Station,40.750779,-73.993476
Public Restroom,Madison Sq Park,40.742029,-73.98751
Prospect Park Bandshell,ninth street playground ~ bandshell building,40.663471,-73.976615
Old Stone House in JJ Byrne park,336 3rd St between 3d and 4th streets in the park,34.2525642,-85.1692598
Bed Bath and Beyond,620 6th Ave.,39.725618,-104.9796887
Bodum,413 W 14th St,41.506081,-87.660127
McDonalds,6 Water St.,40.70317,-74.012241
Old Navy,610 Avenue of the Americas,40.738825,-73.996357
St Vincents Hospital,800 Castleton Avenue,40.634491,-74.1092251
St Vincents Emergency Room Area,900 castleton avenue,40.6347424,-74.1122795
Shoprite 2344,2344 Richmond Avenue ~ Forest Avenue,40.6276019,-74.1678203
Tribeca Bagels,374 Canal Street,29.9507988,-90.0658676
Pearl Paint,308 Canal Street,29.9506042,-90.0655654
Sbarro Pizza and Pasta,298 Canal Street,29.9505752,-90.0655196
Kings Leather,267 Canal Street,29.9505876,-90.0650254
Starbucks Coffee,405 Broadway,40.718977,-74.002641
Teariffic,51 Mott Street,40.7154702,-73.9987687
Burger King,273 Canal Street,40.719335,-74.001218
Mc Donalds,260 Canal Street,40.718687,-74.001022
Citicorp Center,153 East 53rd St,41.5744546,-90.5713507
Babies R Us,24~30 Union Square East corner 15th St,40.7360786,-73.9917058
Chelsea Market,75 Ninth Ave,40.742734,-74.006041
Times Square McDonalds,"1560 Broadway, New York, NY",40.758878,-73.984635
Staten Island Ferry,"Water St & Whitehall St, New York, NY 10004, USA",40.702622,-74.012822
Public Atrium ~ 60 Wall St.,"60 Wall St, New York, NY 10005",40.706687,-74.007743
Cosmos Service Inc,"65 Broadway, New York, NY 10006",40.7073131,-74.012587
Burger King,"44 Gold St, New York, NY 10038",40.7087437,-74.0057398
New Amsterdam Branch Library,"9 Murray St, New York, NY 10007",40.7136425,-74.0079468
Franklin Square,"70 Elizabeth St, New York, NY 10013",40.7177279,-73.9962547
Bloomingdales Soho,504 Broadway (bet. Broome and Spring),40.722384,-73.999144
Macys Department Store,151 West 34th St.,40.750962,-73.989526
Port Authority Bus Terminal,8th Ave & 42nd street,40.757414,-73.989772
Herald Square Park,Broadway & 35th Street,40.750293,-73.987646
Greeley Square Park,Broadway & 32nd Street,41.1115472,-73.8583806
Lincoln Center for Performing Arts,138 W. 65th St.,41.7764299,-87.626745
PROSPECT PARK playground,EASTERN PKWY BETWEEN WASHINGTON AVE & FLATBUSH AVE,40.660869,-73.965199
Brooklyn Public Library central branch,Grand Army Plaza,40.6730861,-73.9694272
Underhill Playground,Underhill Ave at Prospect Place,40.676715,-73.965699
Saks Fifth Avenue,"611 Fifth Avenue (between E. 49th and 50th st.), New York, NY 10022",40.758096,-73.976969
Bloomingdales,"1000 Third Avenue (between E. 59th and 60th st.), New York, NY 10022",40.7619986,-73.9656927
Penn Station~ New Jersey Transit,"14 Penn Plaza, New York, NY 10001",40.7507431,-73.9921407
Public Restroom,Shore Road Park at 79th Street,40.6312978,-74.0388353
The Soltaire,"20 River Terrace, New York, NY 10282",40.7165818,-74.0161324
Chelsea Piers Golf Club,11th Ave & W 22nd St,40.7437031,-74.008656
Playground,Madison st. & Jefferson,35.0131472,-90.7226097
Playground,Market St. & Cherry St.,34.3186252,-77.7693794
Playground,Catherine Slip & Monroe St.,40.7096804,-73.997115
Wendys,6420 AMBOY ROAD,40.521419,-74.216746
Roosevelt Island Tramway,"Road 5, New York, New York",40.762991,-73.949399
NY Waterway Ferry Terminal,W. 39th & 12th Ave,30.5247591,-82.942473
New York Public Library Schwarzman Building,5th Avenue & 42nd Street,40.7465393,-73.9859729
Time Warner,Columbus Circle,40.7680441,-73.9823722
Great Kills Park Parking Lot,Buffalo St,42.4715489,-78.9354506
Home Depot,"2970 Cropsey Ave, Brooklyn, NY 11214",40.581776,-73.988563
Pathmark,"2965 Cropsey Ave., Brooklyn, NY",40.582988,-73.984933
Loehmanns Department Store,"2807 EAST 21ST STREET BROOKLYN, NY 11235 (718) 368~1256",40.584251,-73.94673
Battery Park,"7 Slate St, New York, NY 10004, USA",41.3562081,-74.6803501
Castle Clinton,"17 Battery Pl, New York, NY 10005",40.7051613,-74.0159706
Public Toilets,By the entrance to Chelsea Pier,40.748886,-74.008691
Inside Playground at Union Sq.,Union Square NE side,40.735266,-73.990277
Conservatory Pond ~ Central Park close to 74th St and 5th ave,Conservatory Pond ~ Central Park close to 74th St and 5th ave,40.773965,-73.966555
Pier 84 Comfort Station,Hudson River Greenway at 44th St,40.763445,-73.999861
Riverside Branch New York Public Library,127 Amsterdam Avenue (at W. 65th St.),40.774468,-73.984442
Playground 174,"East 174 Street, Stratford Ave",40.7633699,-73.6412419
Bronx River Parkway,Bronx Blvd between East 226 St and East 228 St,40.8370495,-73.8654295
Abigail Playground,"East 156 Street, Tinton Avenue",40.3055318,-74.0687506
Allerton Playground,"Anrow Avenue, Bouck Avenue, Throop Avenue, Streetedman Place, Allerton Avenue",40.865851,-73.850576
Bailey Playground,"Bailey Avenue, Weast 233-West 238 Streets",40.8819128,-73.9001578
Behagen Playground,"Tinton Avenue, East 165 Street, Union Avenue, East 166 Street",40.8253722,-73.9012602
Belmont Playground,"Crotona Avenue, East 181 Street",40.8502451,-73.8876637
Bronx River Parkway,"Bronx River Parkway, Bronx Park, Westchester/NYC City Line",40.866736,-73.878706
Bufano Park,"La Salle Avenue, Edison Avenue, Bradford Avenue, Waterbury Avenue",40.8381348,-73.8310627
Captain Rivera Playground,"East 156 Street, Forest Avenue",40.8178344,-73.906772
Castle Hill Playground,"Parker Street, Castle Hill Avenue, Puroy Street",40.8234124,-73.8509116
Cedar Playground,"West 179 Street, West Burnside Avenue, Major Deegan Expressway, Sedgewick Avenue",40.855062,-73.917406
Ciccarone Park Playground,"Arthur Avenue, East 188 Street",40.855959,-73.886632
Claremont Park Playground,E 170 Street & Teller Avenue,40.471443,-93.8654043
Colucci Playground,"Hutchinson River Parkway, Wilkinson Avenue, Mayflower Avenue",40.8528355,-73.8347386
Crotona Park (Martin Van Buren Playground),Crotona East & Claremont Parkway,40.8353103,-73.8958401
Crotona Park (Playground of the Stars),Fulton Avenue & Crotona Park South,40.835697,-73.901235
Crotona Park (Pool House),173rd Street & Fulton Avenue,40.839929,-73.897816
Crotona Park (Environmental Center),"Crotona Park North, Crotona Park South, Crotona Park East, Fulton Avenue",40.839858,-73.890078
Devoe Park,"West Fordham Road, University Avenue, Sedgwick Avenue, Father Zeiser Place",40.863695,-73.9049
Drew Playground,"Fulton Avenue, East 169 Street",40.833137,-73.90334
Eastchester Playground,"Adee Avenue, Tenbroeck Avenue",40.8698953,-73.8527494
Flynn Playground,"3 Avenue, East 158 Street, Brook Avenue, East 157 Street",40.820962,-73.91183
Franz Sigel Park,"East 153 Street, Gerard Avenue, East 151 Street, Walton Avenue",40.8231019,-73.9253274
Grove Hill Playground,"East 158 Street, Caldwell Avenue, Eagle Avenue",40.82001,-73.908982
Gun Hill Playground,"Holland Avenue, Magenta Street, Cueger Avenue",40.874779,-73.865615
Haffen Park,"Burke Avenue, Hammersley Avenue, Gunther Avenue, Ely Avenue",40.8736702,-73.8393333
Harris Park,"West 205 Street, Paul Avenue, Bedford Pk B, Goulden Avenue",40.875955,-73.892151
Havemeyer,"Watson Avenue, Havennuemeter Avenue, Cross Bronx Expressway",40.829822,-73.847859
Henry Hudson Park,"Palisade Avenue, Kappock Street & Independence Avenue",40.880901,-73.920217
Horseshoe Playground,"Hall Place, Rodgers Place, East 165 Street",43.6358402,-79.425958
Hunts Point Playground,"Spofford Avenue, Hunts Point Avenue, Faile Street",40.8144125,-73.8868227
Julio Barballo Field,"Lafayette Avenue, Manda Street",33.5391114,-92.8469446
Loreto Park Playground,"Morris Park Avenue, Haight Avenue, Tomlinson Avenue, Van Nest Avenue",40.8522006,-73.8507279
Lozada Playground,"East 135 Street, Willis Avenue, Alexander Avenue",40.8078754,-73.9250518
Macombs Dam Park,East 161th street & Ruppert Place,40.0221122,-86.1021167
Magenta Playground,"Olinville Avenue, Rosewood Street",40.873235,-73.868208
Mapes Pool,"East 180 Street, Mapes & Prospect avenues",44.676126,-84.2319123
Marble Hill Playground,"Marble Hill Avenue, West 130 Street, West 228 Street",38.833984,-90.838313
Mazzei Playground,"Mace Avenue, Williamsbridge Road",40.8629385,-73.8520399
Millbrook Playground,"East 135 Street, Cypress Avenue",40.804398,-73.916665
Mosholu Playground,"Mosholu Parkway, Bainbridge Avenue, Briggs Avenue",40.872292,-73.882763
Mott Playground,"Morris Avenue, College Avenue, McClellan Street",40.831279,-73.914802
Mullaly Park (Skate Building),"East 164 Street, Jerome Avenue, Macombs Dam Bridge, East 162 Street, River Avenue",40.831783,-73.92406
Nelson Playground,"West 166 Street, Nelson Avenue, Woodycrest Avenue",40.8348988,-73.9269807
Noble Playground,"Nobel Avenue, Bronx River Avenue, Bronx River Parkway, Cross Bronz Expressway",40.8372519,-73.8722287
Orchard Beach Pavilion,"Bruckner Boulevard, Eastchester Bay, Hutchinson",40.8524136,-73.8263227
Owen Dolen Recreation Center,"Westchester Avenue, Lane Avenue, East Tremont Avenue",41.0144987,-73.7118056
P.O. Serrano Playground,"Turnbull Avenue, Olmstead Avenue, Lafayette Avenue",40.823453,-73.850965
Parkside Playground,"Arnow Avenue, Adee Avenue, Olinville Avenue",40.866094,-73.868732
Pelham Bay Park (Bruckner Boulevard and Wilkinson Avenue),"Bruckner Boulevard, Eastchester Bay, Hutchinson",40.851686,-73.824701
Pelham Bay Park (Hunter Island Picnic Area),"Bruckner Boulevard, Eastchester Bay, Hutchinson",40.8524136,-73.8263227
Pelham Bay Park (Playground for All Children),Bruckner Expressway & Buhre Avenue,40.8252582,-73.8663659
Pelham South Park Headquarters,"Bruckner Boulevard, Eastchester Bay, Hutchinson",40.8524136,-73.8263227
Quarry Ballfields,"Quarry Road, East 181 Street, Oak Place & Hughes Avenue",40.8510258,-73.890971
Rainey Park,"Dawson Street, Beck Street, Kelly Street, Intervale Avenue, Longwood Avenue",40.766062,-73.940694
Randall Playground,"Randall Avenue, Castle Hill Avenue",40.819203,-73.849555
Rev. Polite Playground,"Rev. James Polite Avenue, Intervale Avenue, East 167 Street",40.827119,-73.896786
Richman (Echo) Park Playground,"East 178 Street & Ryer Avenue, Upper Level",40.849475,-73.901681
Rienzi Playground,"East 226 Street, Barnes Avenue, East 225 Street",40.887659,-73.858673
Riverbend Playground,"Bailey Avenue, West Kingsbridge Road",40.8718815,-73.9059453
Rose Hill Park,"Webster Avenue, Harlem River, East Fordham Road",40.8444372,-73.9026954
Seton Park,"West 135 Street, Independence Avenue, West 232 Street",38.8875829,-77.0127201
Slattery Playground,"East 183 Street, Ryer Avenue, Valentine Avenue",40.857314,-73.8983205
Soundview Park Playground,Metcalf Avenue between Seward and Randall Avenues,40.8222095,-73.8597328
Space Time Playground,"Streetory Avenue, Bolton Avenue, Lafayette Avenue, Underhill Avenue",40.871825,-73.905859
Stars & Stripes Playground,"Guerlain Street, Thieriot Avenue, Taylor Avenue",40.885188,-73.839345
Tiffany Playground,"Tiffany Street, Fox Street, East 167 Street",40.824701,-73.894306
Tremont Park Playground,Corner of East 175 Street & Arthur Avenue,43.1905,-91.8592758
Van Cortlandt Park (Allen Shandler Recreation Area),"Broadway, Jerome Avenue, City Line, Van Cortlandt Park South",40.890385,-73.896044
Van Cortlandt Park (Classic Playground),Van Cortlandt Park South and Gouverneur Avenue,40.8849265,-73.8907719
Van Cortlandt Park (Indian Field),"Broadway, Jerome Avenue, City Line, Van Cortlandt Park South",40.89651,-73.878271
Van Cortlandt Park (Nature Center),West 239 Street & Van Cortlandt East,40.891135,-73.893921
Van Cortlandt Park (Pool Building),West 242nd Street & Broadway,40.8895802,-73.8999318
Van Cortlandt Park (Stables Area),Broadway and West 254th Street,40.9010541,-73.8969283
Van Cortlandt Park (Stadium),"Broadway, Jerome Avenue, City Line, Van Cortlandt Park South",40.888181,-73.897402
Van Cortlandt par (UC Pool Headquarters),"Broadway, Jerome Avenue, City Line, Van Cortlandt Park South",40.8899,-73.895857
Van Cortlandt Park (Woodlawn Playground),West 239 Street & Broadway,40.900074,-73.872186
Vidalia Park,Vyse & Daly avenues between West 179-180 streets,52.1790819,-1.2987189
Vinmont Veteran Playground,"Mosholu Avenue, West 254 Street, Riverdale Avenue, West 256 Street",40.902254,-73.904806
Virginia Playground,"Virginia Avenue, McGraw Avenue, Cross Bronx Expressway, White Plains Road",40.8342007,-73.8622136
Wakefield Playground,"Matilda Avenue, East 239 Street, Carpenter Avenue",40.9018109,-73.854679
Watson Gleason Playground,"Gleason Avenue, Rosedale Avnue, Watson Avenue, Nobel Avenue",28.6160748,-80.8213475
Webster Playground,E. 188 St. Bet. Webster Avenue and Park Avenue,40.8595438,-73.8929003
Zimmerman Playground,"Britton Street, Barker Avenue, Olinville Avenue",40.866113,-73.868598
Abe Lincoln Playground,"East 135 Street, between Madison & 5 avenues",43.0730517,-89.4012302
Alexander Hamilton Playground,"Hamilton Place, West 140 to West 141 Streets",41.2795964,-82.2451306
Alfred E. Smith Park,"Catherine Slip, Madison & South Streets",43.0730517,-89.4012302
Alice Kornegay Triangle,"Lexington Avenue, East 128 & East 129 Streets",40.92844,-81.1153853
Annunciation Park,"Convent and Amsterdam Avenue, W 135 Street",40.8184009,-73.9508602
Asser Levy Playground,Asser Levy Place & East 24-25 streets,40.736139,-73.975635
Audoubon Playground,West 170 Street & audubon avenue,40.842176,-73.939111
Augustus St. Gaudens,"East 19 to East 20 streets, 2 avenue",40.735597,-73.982178
Bendheim Playground,100th Street and 5th Avenue,40.790333,-73.954424
Bennett Park,"West 185 Street, Ft Washington Avenue",40.1390398,-75.2100952
Bloomingdale Playground,"Amsterdam Avenue, West 104 & West 105 streets",40.7987854,-73.9658493
Carl Schurz Promenade,"Stone Wall to East River, East 84 to East 90 streets",40.775171,-73.943654
Carmansville Playground,"Amsterdam Avenue, West 151 to West 152 streets",40.82927,-73.944162
Chelsea Park,West 27 Street & 9 Avenue,40.750145,-74.00128
Chelsea Recreation Center,"South of West 25 Street, 9 to 10 avenues",40.748305,-74.002032
Cherry Tree Washington Playground,"99 to 100 streets, 3 Avenue",40.787135,-73.947274
Col. Charles Young Playground,West 144 Street & Lenox Avenue,40.8195904,-73.9361885
Columbus Park,"Baxter, Mulberry, Bayard & Worth streets",40.715125,-73.999964
De Witt Clinton Park,"West 52 to West 54 streets, 11 to 12 avenues",40.768136,-73.9943891
Downing Street Playground,"downing to carmine streets, Avenue of the Americas",40.730252,-74.002189
Dry Dock Playground,"East 10 Street & Szold Place, Avenue D",40.725342,-73.975459
Dyckman House Museum,Broadway & West 204 Street,41.1115472,-73.8583806
East River Park (10th Street),Northern extreme of park,40.142144,-76.964023
East River Park (Tennis Courts),East River Park at Broome Street,40.719909,-73.973635
East River Park (Track Building),East 6 Street & FDR Drive,43.9719586,-92.0560338
East River Playround,"FDR Drive, East 106 to East 107 streets",40.789187,-73.9379
Fort Tryon Park (Anne Loftus Playground),Broadway & Dyckman Street,41.1115472,-73.8583806
Fort Tryon Park (Caf_),One Margaret Corbin Drive,48.8632856,-99.622883
Fort Tryon Park (The Cloisters),"Riverside Drive to Broadway, West 192 to Dyckman streets",40.8158821,-73.9623705
Fort Washington Park (Lily Brown Playground),"West 162 Street, east of Riverside Drive",35.5888502,-82.5700538
Frederick Douglass Playground,West 100-101 Street Amsterdam Avenue,40.7741609,-73.9859188
Frederick E. Samuel Playground,"Lenox Avenue, West 150-151 streets",43.0928727,-75.6546064
Frederick Johnson Park,"7 Avenue, West 150-151 streets",37.7891138,-89.5307414
General Douglas MacArthur Park,East 49 Street & East River Drive,25.8671713,-80.2711956
Hamilton Fish Park (Recreation Center),Between Easton Houston & Stanton streets,29.7604267,-95.3698028
Hansborough Recreation Center,35 West 134 Street,35.3343358,-97.5128357
Happy Warrior Playground,West 98 Street & Amsterdam Aveue,44.8263946,-93.3188017
Highbridge Park (Quisqueya Playground),West 180 Street & Amsterdam Avenue,40.4554989,-94.1199107
Highbridge Park (Recreation Center),"West 155 & Dyckman streets, Edgecombe & Amsterdam avenues",40.842771,-73.934133
Highbridge Park (Wallenberg Playground),West 188 Street & Amsterdam Avenue,40.852714,-73.926915
Holcombe Rucker,"West 155 St, 8 Ave to Harlem River Drive",40.832725,-73.939137
Howard Bennett Playground,"West 135 to West 136 streets, Lenox to 5 avenues",40.8136794,-73.9387312
Inwoood Hill Park (Nature Center),Gaelic Field and Area around Salt Marsh West of Indian Road (at 218th St),40.871509,-73.925709
Inwood Hill Park (Payson Playground),Payson & Dyckman streets,40.8677145,-73.9212019
Inwood Hill Park (Tennis Courts),Tennis courts & ballfields along Seaman Avenue from 207th Street to 214th Street,40.869927,-73.922422
J. Hood Wright Park,"Ft. Washington & Haven avenues, West 173 St",40.846319,-73.941364
Jackie Robinson Park,West 149 Street & Bradhurst Avenue,40.824236,-73.942139
Jackie Robinson Park (Playground 152 CLII),West 152 & Bradhurst Avenue,40.827962,-73.93994
Jackie Robinson Park (Rec Center),"Bradhurst & Edgecombe avenues, West 145 to West 155 streets",40.824274,-73.942122
Jacob Schiff Playground,"Amsterdam Avenue, West 136 Street",40.8174777,-73.946736
John Jay Park & Pool,East 76-East 78 streets & Cherokee Place,38.979234,-94.439631
James J. Walker Park (Carmine Rec Center),"Hudson, Leroy, Clarkson streets, 7 ave",40.729758,-74.006272
Little Flower Playground,Madison Street opposite Jefferson Street,43.0730517,-89.4012302
Marcus Garvey Park (Pelham Fritz Recreation Center),18 Mount Morris Park West,40.8050093,-73.9448633
Marcus Garvey Park (pool),"Madison Avenue, East 120 to East 124",43.6728093,-79.4052216
Martin Luther King Houses,"Lenox ave, west 113 to west 114 streets",38.6727119,-90.2934383
May Matthews Playground,West 45 St between 9 & 10 avenues,29.8331559,31.3529387
McCaffrey Playground,"West 43 St, 8 & 9 avenues",38.431024,-86.941794
McKinley Playground,"Ave A, East 3-East 4 streets",47.6532648,-117.3469896
Morningside Park,West 123 St & Morningside ave,41.6661463,-87.8912235
Morningside Park,"Athletic Fields and Lawns from 114th St to 110th St along Manhattan Ave, East of Upper Path",40.806028,-73.959063
Morningside Playground,West 117 St & Morningside Ave,41.4675749,-81.7687675
Msgnr. Kett,West 204 St & Nagle Ave,33.8456017,-118.2992222
Orville & Wilbur Playground,West 156 St & St. Nicholas Avenue,40.83168,-73.941769
Playground 70,West End Avenue & West 70 Street,40.704988,-73.881494
Playground 96 (XCVI),"2 Avenue, East 96 to East 97 Street",40.785684,-73.950114
PS 155 Playground,"East 117 to East 118 Streets, 1 to 2 avenues",40.798027,-73.936976
Renaissance Playground,"West 144 Street, between 7 & 8 avenues",29.839422,31.3384822
Robert Moses Playground,"1 Ave, East 41 to East 42 St",-10.3345449,-48.2997164
St Nicholas Park South,West 129 & 7 Ave,43.6118917,-112.1298471
St Nicholas Park,West 133 St & St Nicholas Ave,38.8257134,-95.8199323
St Nicholas Park (Arlington Edinboro Playground),West 140 St & St Nicholas Ave,40.5150292,-93.99842
St Vartan Park,"East 35-East 36 St, between 1 & 2 avenues",29.8894662,31.3071263
Stanley Isaacs,East 96-97 Streets & FDR Drive,36.0234368,-95.8724539
Tecumseh Playground,West 77 St & Amsterdam Ave,41.7536803,-87.6872304
Union Square Park,"Broadway to 4 Avenue, East 14 Street to East 17 streets",40.736292,-73.989566
Vesuvio Playground,Spring & Thompson Streets,40.725367,-74.0025609
Wagner Pool,East 124 Street between 1 & 2 Ave,40.801992,-73.933208
West 59th St Recreation Center & Pool,"West 59 to West 60 St, Amsterdam to West End Ave",40.771447,-73.988567
Brevoort Playground,Ralph Ave & Chauncy St,40.6805498,-73.9225717
Brownsville Playground,Linden Blvd & Hegeman Ave,25.8159583,-80.2299094
Bushwick Inlet Park,Kent Ave. btwn N 9 St. and N 12 St,40.7222436,-73.9615144
Bushwick Playground & Pool,Flushing & Bushwick Ave btwn Garden & Beaver,40.7018076,-73.9394723
Cadman Plaza & Brooklyn War Memorial,"Tillary, Cadman Plaza West, Cadman Plaza East, Prospect St",40.6982776,-73.9914896
Century Playground,Brighton Beach Ave & West 2 St,40.5775615,-73.961412
Chester Playground,"Chester Street, Sutter Ave",36.2198886,-115.1881888
City Line Park,Atlantic & Fountain Aves,41.4036007,-95.0138776
Coney Island,Brighton 2nd,39.985252,-104.8202615
Coney Island Beach,Corbin Pl to Coney Island Ave,40.5721302,-73.9793298
Cooper Park,"Sharon, Olive St, Maspeth & Morgan Aves",40.714593,-73.938755
Cypress Hills Park,Blake & Euclid Ave,31.8970099,-92.2413776
Digilio Playground,McDonald Ave & Ave F,40.6235909,-73.9758061
Dimattina Playground,Hicks & Rapelye St,31.184905,-93.0159912
Dr. Martin Luther King Jr. Park,"Dumont, Blake, Miller Ave",40.667555,-73.890647
Dr. Richard Greene Playground,Mother Gaston Blvd (Stone Ave) & Sutter Ave,40.712986,-73.987595
Dyker Beach Park,"Shore Prkwy, 86 St, 7 to 14 Ave",40.6120808,-74.0140275
Edmonds Playground,"DeKalb Ave, Adelphi St",41.9294736,-88.7503647
Ethan Allen Playground,New Jersey Ave & Vermont St/Worthman,38.9855357,-74.8226626
Fermi Playground,Troutman St & Central Ave,40.7004831,-73.9285422
Fox Playground,"Ave H, East 54 to E 55 St",-10.3214578,-48.3234738
Fulton Park,"Fulton, Chauncey St, Stuyvesant, Lewis Ave",40.1905499,-74.7805328
Galapo Playground,"Bedford Ave, Gravesend Neck Rd",40.6081026,-73.9481894
Garibaldi Playground,82 to 83 St at 18 Ave,13.7873829,100.6456852
Greenwood Playground,"Fort Hamilton Pkwy, Greenwood, East 5 St",40.6094454,-74.0285434
Hamilton-Metz Field,"Albany, E New York, Lefferts Ave",40.6626057,-73.9467655
Hattie Carthan Playground,East of Marcy St,35.6885097,-105.9352118
Heckscher Playground,Grove St to Linden St,40.7684844,-73.9772017
Herbert Von King Park,"Greene, Marcy, Lafayette, Tompkins Ave",40.689612,-73.946732
Herman Dolgon Playground,Ave V & Hostrand Ave,38.5656096,-97.9590939
J.J. Byrne Memorial Park,"3 to 4 St, 4 to 5 Ave",26.1616275,32.7080971
Jackie Robinson Playground,"Sullivan Place & Franklin Ave, Montgomery St",40.6643685,-73.9560187
Jesse Owens Playground,John J. Carty Park,40.6132391,-74.0301958
John Paul Jones Park,"Shore Prkwy, Fort Hamilton Parkway, 101 St",40.6110485,-74.033835
Kaiser Park,"South of Gravesend Bay, Southeast of Path, Northeast of Neptune Ave",40.5789776,-73.9970482
Kennedy King Playground,East 93 St & Lenox Rd,41.4599879,-81.6214291
Lincoln Terrace Park,Buffalo Ave/Protal St/New York Ave,40.667319,-73.926355
Lindower Park,"Mill & Strickland Ave, 60 St",40.6123076,-73.9113651
Maria Hernandez Park,"Knickerbocker to Irving Ave, Starr to Suydam St",40.7031595,-73.9238951
Marine Park,Burnett St btwn Ave U and Ave X/west of East 33rd St,40.5954615,-73.9212858
Marion-Hopkinson Playground,Hopkinson Ave & Marion St,40.6692495,-73.9135787
Martinez Playground,"Scholes St, Graham Ave",40.708466,-73.943466
McCarren Park,12th St/Driggs Ave/Lorimer St/ Bedford Ave,40.7213441,-73.9526361
McLaughlin Park,"Tillary St, Jay St, Cathedral Pl, Bridge St",40.6963853,-73.986125
Mellet Playground,Ave V btwn East 13 & East 14 St,29.840364,31.3375167
Metropolitan Pool,Southeast corner of Bedford & Metropolitan Ave,33.780065,-117.9039335
Mt. Prospect Park,"Eastern Pkwy, Underhill Ave",40.7625797,-73.5337516
Newport Playground,Newport Ave & osburn St,40.660673,-73.903993
Nostrand Playground,Nostrand & Foster Ave,40.62297,-73.94641
Ocean Hill Playground,"Bergen St, Rockaway Ave, Dean Street",40.885978,-74.555825
Oracle Playground,Adelphi & Myrtle Ave,39.0031656,-76.97192
Osborn Playground,Linden Blvd & Osborn St,40.6578786,-73.896138
Paerdegat Park,"Foster Ave, East 40-41 St",40.678658,-73.723344
Rappaport Playground,"52-53 St, Fort Hamilton Parkway",40.650273,-73.976452
Red Hook Park (Coffey Park Playground,"King, Richards, & Dwight St",52.6339568,-1.152479
Red Hook Park (Recreation Center),"Otsego, Bay, Hicks, Lorraine, Court, Halleck St",40.6772802,-74.0094471
Rodney Playground South,"Rodney, South 3 & South 4 St",42.2054689,-95.9498735
Roebling Playground,"Wilson & Lee Ave, Taylor St",35.7212689,-77.9155395
Rolf Henry Playground,New York & Clarkson Ave,40.7127837,-74.0059413
Russell Pederson Playground,"Colonial Rd, 83 to 85 St",40.626353,-74.036105
Saratoga Square Park,"Howard Ave, Halsey, Macon St",40.684971,-73.918769
Slope Park,6 Ave Bet 18 & 19 Sts,29.8387038,31.3384993
Star Spangled Banner Playground,Franklin & Wiloughby Ave,35.9250637,-86.8688899
Sternberg Park,"Montrose Ave, Boerum, Lorimer, Leonard St",56.706922,-2.466115
Stockton Playground,Marcy & Park Ave,43.1706253,-75.2915564
Sunset Park,"41 to 44 St, 5 to 7 ave",-8.8555137,-48.5083212
Surf Playground,West 27 St & Surf Ave,36.8756394,-76.2967379
Tiger Playground,Evergreen Ave & Eldert St,43.2773188,-93.4083467
Tilden Playground,"Tilden Ave, East 48 to East 49 St",43.6947781,-79.5158585
Van Voorhees Lower Park,"Congress, Columbia, West/South BQE",40.689651,-73.999566
Washington Hall Playground,"Park, Washington Ave to Hall St",40.695402,-73.966711
William Sheridan Playground,"Wythe Ave, Berry & Grand St",40.7151949,-73.9640858
Willoughby Playground,Tompkins & Willoughby Ave,42.3730923,-84.5416359
Yak Playground,Ave Y btwn Coyle & Batchelder St,40.5925244,-73.9365332
Annandale Playground,Yellowstone Blvd & 65 Rd & 65 Ave,29.6935712,-95.3616088
Arrow Community Garden,35th St & 36th Ave,38.4047226,-82.600277
Astoria Heights Playground,"30 Rd, 45 to 46 St",40.760674,-73.911527
Athens Sq,29 St & 30 St & 30 Ave & Newtown Ave,40.768416,-73.921227
Bay Terrace Playground,23 Ave & 212 St,48.0054429,-97.8551628
Bayside Fields,"204 St & 29 Ave, Clearview Expressway",44.4267369,-97.516649
Bayside Playground,Beach Channel Dr & Seaside Ave,40.5897085,-73.8148117
Bellaire Playground,89 Ave & 207 & 208 St,40.710539,-73.7871156
Captain Tilly Park,Highland Ave & Upland Pkwy & Gothic Pkwy & 85 Ave,36.53264,-119.6289038
Castlewood Playground,Little Neck Pkwy & 72 Ave,40.7536177,-73.7227354
Challenge Playground,251 St & 63 Ave,43.7457298,-97.6172678
Clement Clark Moore Park,Broadway & 83 St,41.1115472,-73.8583806
Clintonville Playground,Clintonville St & 17 Rd & 17 Ave,40.7864387,-73.8098461
Crocheron Park Field House,34th Ave & 214th Pl & 34th Rd & 214th Ln & 35th Ave & 216th St,40.7543568,-73.8794598
Crowley Playground,57 Ave & 83 St,37.548291,-99.0500762
Cunningham Park,210 St & 73 Ave,40.7423761,-95.2234607
Ditmars Park Playground,23 Ave to Ditmars Blvd,40.7727441,-73.8976184
Dutch Kills Playground,"crescent-28 St, 36 Ave & 37 Ave",40.757111,-73.933044
East Elmhurst Playground,25 Ave & 98 St,40.765544,-73.870759
Ederle Comfort Station,"Grand Central pkwy & Whitestone Exwy between 111 St & College Point Blvd, Park Dr E",40.7186362,-73.7954966
Emerald Playground,14 St between Jewe Ave & 71 Ave,61.1540538,-149.9542148
Equity Park,90 St & 88 ave & 89 Ave,42.7591754,-91.7155762
Farm Playground,73 Ave & 195 St & 196 Pl,40.7381109,-73.7674294
Flushing Fields,Bayside Ave & 25 Ave & 149 to 150 St,40.7714722,-73.8172937
Flushing Meadows Corona Park,Grand Central Pkwy & Van Wyck Expressway,40.7186362,-73.7954966
Hallets Cove Playground,Hallets Cove & Vernon Blvd,-37.1966644,144.0833442
Hammel Playground,Rockaway Beach Blvd between beach 84 St & Beach 81 St,40.5831381,-73.8226613
Harold Schneideman Playground,155 Ave & 83 St,41.6400998,-90.5980213
Hart Playground,37 Ave & west of 69 St,41.5505926,-87.2047099
Hemon MacNeil Park,East of paved path running north from 119th St,40.7928327,-73.8518567
Hollis Playground,205 St & Hollis Ave,44.414235,-98.2489349
Holy Cow Playground,Peck Ave & Harding Blvd,40.9852219,-73.6771619
Hoover Playground,Manton St & 83 Ave,39.9373794,-75.1802915
Horace Harding Playground,62 Dr between 97 Pl & 98 St,33.8631902,-84.4649469
John Golden Park,215 Pl & south of 32 Ave,40.774225,-73.767632
Kissena Corridor East,Peck Ave & 188 St,40.7473524,-73.820586
Lawrence Virgilio Playground,39 Drive & 54 St,40.747474,-73.910586
London Planetree Playground,88 St & Atlantic to 95 Ave,43.829476,-85.7420126
Loring Field,north Conduit & 149 Ave,40.6669522,-73.7957487
Lost Battalion Hall,Queens Blvd beetween 62 Ave & 62 Rd,40.7282239,-73.7948516
Lou Lodati Playground,Skillman Ave & 43 St,40.631055,-73.62462
Louis Armstrong Playground,37 Ave between 112 & 113 St,51.3298101,-0.4139676
Louis Pasteur Park,248 St & 51 Ave,43.7894496,-97.317357
Maple Playground,Kissena Blvd & Maple Ave,40.7413696,-73.8148124
Marconi Park,109Ave & 155 St,42.4839997,-86.1205004
Marie Curie Park,211 & Oceana St & 46 Ave,40.7571164,-73.7715039
Maurice A. Fitzgerald Playground,Atlantic Ave & 106 St,40.690865,-73.839237
Michaelis-Bayswater Park,Beach Channel Dr & B 32 St & Dwight Ave & Norton Ave,40.5897085,-73.8148117
Montbellier Park,Springfield Blvd & 139 Ave,40.7073529,-73.7390612
Murray Playground,21 St & 45 Ave & 11 St & 45 Rd,34.4193638,-103.1463857
Nautilus Playground,Merrick & Baisley Blvd,40.6628795,-73.551516
North Rochdale Playground,Baisley Blvd & Bedell St,40.680689,-73.77472
Nicholas Demutis Playground,102 St & Liberty Ave,40.681596,-73.83901
Painters Playground,Alderton St from Dieterle to Elwell Crescents,40.720411,-73.860036
Playground 90,Northern Blvd & 90 St,32.4227473,-86.2748531
Playground 75,106 St & 75 Ave,45.8539288,-99.3768295
Queens Farm Museum,Little Neck Pkwy & Commonwealth Blvd & south of Grand Central Pkwy,40.7536177,-73.7227354
Queensbridge Park,21 St & Bridge Plaza & Vernon Blvd & East River,34.4193638,-103.1463857
Reiff Playground,Fresh Pond Rd & 63 St & 59 Dr,40.710981,-73.899709
Rufus King Park,Jamaica Ave & 153 St & 89 Ave & 150 St,40.7022091,-73.8041576
Russell Sage Playground,68 Ave & Booth to Austin St,43.0306261,-85.9566152
Seaside Playground,Rockaway Beach Blvd & B109-B110 St,40.5831381,-73.8226613
Smokey Oval,125 St & Atlantic Ave,45.5789743,-99.643324
St. Albans Park,174 St & 113 Ave,40.837288,-73.887734
Tall Oak Playground,64 Ave & 218 st & 219 St,40.746569,-73.758899
Union Playground,Union St & 31 Rd,42.8212715,-89.3010356
Vleigh Place Playground,Vleigh Pl & 141 St,40.72314,-73.8204868
Vleigh Playground,70 Rd to 71 Ave,23.0599167,113.1020109
Whitestone Playground,12 Ave & 153 St,40.79201,-73.808606
Greencroft Playground,Redgrave ave & Ainsworth ave & Durant ave,40.551685,-74.136334
Joline Pool Playground,Joline Ave & Hylan Blvd,40.505721,-74.235713
Levy Playground,Jewett ave & Castleton ave,41.9031595,-100.2688943
Lyons Pool,Pier 6 & Victory Blvd,57.4390903,10.5516386
Mahoney Playground,Beechwood ave & Cleveland ave,40.850432,-81.1339976
Markham Playground,Willowbrook Pkwy & Forest ave & Houston St,39.8422889,-86.1191996
McDonald Playground,Forest Ave & Myrtle Ave between Broadway & Burgher,43.6815232,-70.2898967
Midland Field,Midland Ave & Mason Ave,30.1800183,-92.5370785
Midland Playground,Lincoln ave & Mason ave,42.7765149,-94.227158
Old Town Playground,Parkinson Ave & Kramer St,40.5966253,-74.0828032
Prescott Playground,Hylan Blvd & Huguenot Ave,40.5464584,-74.1414633
Schmul Park,Wild Ave & Pearson St,31.441349,-86.9680841
Silver Lake Park,Victory Blvd & Clove Rd & Forest Ave,36.7960918,-76.3334076
South Beach Wetlands,Quintard St. Bet. Quincy Ave & Father Capodanno Blvd,40.5869221,-74.0729716
Stapleton Playground,Tompkins ave & Broad St,40.623087,-74.079505
Willowbrook Park,Richmond Ave & Vitory Blvd,40.600498,-74.158237
High Line Bathroom at Gansevoort St,,43.196119,-73.6516666
Morton Williams,"908 Second Avenue, New York, NY",40.753794,-73.968998
100% Playground,"Glenwood Road, East 100 & East 101 streets",40.646566,-73.899077
174th Street Playground,"East 174 Street, Stratford Avenue, Bronx River Avenue",40.8276779,-73.9260176
227 Street Playground,Bronx Boulevard between East 226 and East 228 streets,40.8897285,-73.863865
Agnes Haywood Playground,"East 215 Street, Barnes Avenue, East 216 Street",37.209164,-93.2527085
Albemarle Park,Albermarle Road & Dahill Road,40.645154,-73.980883
Albert J. Parham Playground,"Adelphi Street, Clermont, DeKalb & Willoughby avenues",40.690205,-73.970958
Alley Pond Park (Alley Athletic Field),"Grand Central Parkway, Winchester Boulevard, &Union Turnpike",40.740016,-73.735096
Alley Pond Park (Alley Pond Spring),"Springfield Boulevard, 73rd Avenue, 76th Avenue to tree line & natural area",40.739942,-73.736188
Alley Pond Park (Horatio Playground),Horatio Parkway and 50 Avenue,40.747267,-73.742827
Alstyne Playground,Alystine Avenue & 102 Street,40.743533,-73.861561
American Playground,"Noble, Franklin Milton Streets",40.728769,-73.957659
Ampere Playground (PS 64),101 Avenue & 82 Street,40.681298,-73.856995
Andrews Playground,"49 Avenue, Vernon Boulevard, 5 Street",40.7434498,-73.9548102
Arcilla Playground,"Teller Avenue, Park Avenue, Clay Avenue, East 64 Street",40.8271436,-73.9142127
Arrochar Playground,"Sand Lane, Major Avenue, McFarland Avenue",40.5976316,-74.0709523
Astoria Park (Charybdis Playground),Shore Boulevard opposite 23 Road,40.775606,-73.921492
Aubondale Playground,"170-171 streets, 33-35 avenues",40.6788906,-90.4634925
Baisley Pond Park,"150th Street, Rockaway Boulevard, Baisley Boulevard South, & North Conduit Avenue",40.673605,-73.786032
Bartlett Playground,Bartlett Street & Throop Avenue,37.7524731,-122.4195908
Battery Park Comfort Station,"Battery Place, State & Whitehall streets",40.7035905,-74.0144071
Bayview Playground,Seaview Avenue & East 99 Street,40.635361,-73.8874068
Bedford Playground,"Bedford Avenue & South 9 Street, Division Avenue",40.6536822,-73.9561495
Benson Playground,Bath Avenue between Bay 22 & Bay 23 streets,40.602355,-74.002215
Bensonhurst Park,"Gravesend Bay, 21 & Cropsey avenues, Bay Parkway",40.597859,-74.000014
Betsy Head Playground,"Livonia, Dumont, Hopkinson, Blake avenues, Strauss Street",40.664648,-73.911824
Big Bush Park,"61 Street, north and south of Brooklyn-Queens Expressway",40.7395042,-73.90273
Bildersee Playground,Flatlands Avenue between East 81 & East 82 streets,40.6356534,-73.9118244
Bill Brown Memorial Playground,"Bedford Avenue, Avenue X to Avenue Y, E 24 Street",40.6536822,-73.9561495
Bleecker Playground,Hudson & West 11 streets,42.2528649,-73.790959
Blood Root Valley (Park House),"Rockland, Manor and Brielle avenues, Forest Hill Road",40.587452,-74.133367
Bloomingdale Park,"Richmond Pkwy, Bloomingdale Rd., Lenevar Ave",40.534986,-74.208435
Blue Heron Park Preserve (Nature Center),Poillon Avenue,40.5291996,-74.1761352
Bowne Park,"159 Street, 29 Avenue, 155 Street, 32 Avenue",37.9411724,40.1982725
Bowne Playground,Union Street and Sanford Avenue,40.7377518,-74.235895
Breininger Park,Braddock Avenue & 240 Street,40.728006,-73.7341564
Breukelen Playground,Louisiana & Flatlands Avenue,30.9842977,-91.9623327
Bronx Park (Ben Abrams Playground),Lydig Avenue & Bronx Park East,40.8543818,-73.8610494
Bronx Park (Brady Playground),Bronx Park East between Bronxdale Avenue and Unionport Road,40.8370495,-73.8654295
Bronx Park (French Charley's Playground),East 204 Street & W/S Bronx Park,40.8740125,-73.8833881
Bronx Park (Olinville Playground),East 219 Street & Bronx River Parkway,38.7180672,-94.2559255
Bronx Park (Ranaqua),"Southern Boulevard, Webster, Burke avenues, Bronx Park East, 180 Street",40.8067116,-73.9222962
Bronx Park (River Park Playground),"East 180th Street, Boston Road",40.8370495,-73.8654295
Bronx Park (Rosewood Playground),Bronx River Parkway & Rosewood Street,40.9476645,-73.8345485
Bronx Park (Waring Playground),Bronx Park East between Waring Avenure and Thwaites Place,40.8370495,-73.8654295
Bronx River Parkway (Parque de los Ninos),"Bronx River Parkway, Bronx Park, Westchester/NYC City Line.",40.864696,-73.871816
Brookville Park,"Conduit Avenue, Brookville Boulevard, 144th Avenue, 233rd Street",40.660019,-73.745362
Brower Park,"Brooklyn, St. Mark's, Kingston avenues, Park Place",40.6735874,-73.9431462
Bufano Playground,"La Salle Avenue, Edison Avenue, Bradford Avenue, Waterbury Avenue",40.838143,-73.831052
Cabbell Park/Cambria Playground,121 Avenue & 220 Street,40.689689,-73.743155
Campiz Playground,Hope Street & Metropolitan Avenue,40.713785,-73.9541673
Canarsie Park,"Paerdegat Avenue, Seaview Avenue, East 93rd Street, Skidmore Avenue",40.6303632,-73.8926247
Capt. Rivera Playground,"East 156 Street, Forest Avenue",40.8178344,-73.906772
Capt. Tilly Park,"Highland Avenue, Upland Parkway, Gothic Parkway, 85 Avenue",40.7124413,-73.7988958
Captain Mario Fajardo Park,Kissena Boulevard & Booth Memorial Avenue,40.74732,-73.820605
Carroll Park,Court & Smith Streets,40.681041,-73.995684
Carver Playground,Ralph Avenue & Sumpter Street,40.634696,-73.9188247
Caserta Playground,"St. Raymond Avenue, Puroy Street",40.8373952,-73.8538521
Cavanaugh Triangle (Angelo Campanero Playground),"East Gun Hill Road, Eastchest Road, & O'Neil Place",40.86798,-73.842142
Central Park (Ancient Playground),85 ST & 5TH AVE,40.780756,-73.961612
Central Park (Arsenal),5th Avenue from 60th Street to 65th Street,40.767685,-73.97127
Central Park (Bethesda Terrace),,40.773802,-73.970849
Central Park (Conservatory Garden),"5th Avenue, 103rd Street to 106th Street",40.793717,-73.952457
Central Park (Dana Discovery Center),110th Street between Fifth Avenue and Malcolm X Boulevard,40.797116,-73.951372
Central Park (Heckscher Playground),"62 ST, BET WEST & CENTER DRS",29.8342058,31.3504823
Central Park (Kerbs Boathouse),74th Street near Fifth Avenue,33.503068,-111.921811
Central Park (Loeb Boathouse),East Side between 74th and 75th streets,40.775303,-73.968766
Central Park (North Meadow Recreation Center),Mid-park at 97th Street,40.791119,-73.95971
Central Park (Ramble),Central Park,40.777381,-73.969528
"Central Park (Sheep Meadow, Mineral Springs)",Mid-park at 69th Street,40.773044,-73.974266
Central Park (Tavern on The Green),Central Park,40.7828647,-73.9653551
Central Park (Tennis Courts),93d Street near the West Drive,48.7632453,-101.4482345
Central Park (The Great Hill),West Side from 103rd to 107th streets,41.8810644,-87.663045
Central Park (The Metropolitan Museum of Art),Fifth Avenue at 82nd Street,40.7789422,-73.9623032
Central Park (West 61st),"West Drive, Central Park West, & 65th Street Transverse",40.769285,-73.980984
Central Park (Wollman Rink),Center Drive to East Drive (including Gapstow Bridge),40.767751,-73.974466
Central Park Delacorte Comfort Station,Mid-Park at 80th Street,40.78029,-73.968779
Claremont Park,Mount Eden Parkway & Morris Avenue,40.8427457,-73.908643
Clark Playground,"3 Avenue, East 144 Street, East 146 Street",39.9610321,32.9093759
Col. David Marcus Memorial Playground,"Ocean Parkway, Avenue P, East 3 Street",37.6857796,-122.4842166
Coleman Square Playground,Between Cherry & Monroe streets,39.099582,-94.575511
College Point Park,130th Street & 23rd Avenue,42.6839286,-95.15155
Com. John Barry Park & Playground,South of Flushing Avenue,40.7018957,-73.9369936
Comm. Eugene S. Sarsfield Playground,"East 38 Street & Ryder Street, Avenue M",39.8256472,-86.0553456
Corona Golf Playground,109 Street between 46-47 avenues,33.8631902,-84.4649469
Corporal John A. Seravalli Playground,Hudson & Horatio streets,42.2528649,-73.790959
Corporal Thompson Park,"Broadway, Henderson Avenue",26.637498,-81.8460826
Crotona Park (Martin Van Buren Playground),Crotona East & Claremont Parkway,39.1309856,17.0067031
Cunningham Park (HQ8),"South of Union Turnpike, between Francis Lewis Boulevard & 193rd Street",40.729372,-73.772702
Daniel M. O'Connell Playground,113 Avenue & 196 Street,42.5137113,-86.1297597
Dematti Playground,"Tompkins Avenue, Chestnut Avenue",42.3629638,-76.3514243
Detective Keith L. Williams Park,"106 Avenue, 173 Street, Liberty Avenue, 172 Street",41.674269,-86.2901332
Double Nickel Playground,Osborne Street and Preston Avenue,40.5374856,-74.1622243
Edenwald Playground,"East 226 Drive, Schieffelin Avenue",40.8834859,-73.8453026
Electric Playground,"164 Street, south of 65 Avenue",25.7689182,-80.3021226
Fisher Pool,"32 Avenue, 99 Street",49.2243292,-122.9176077
Flushing Meadows Corona Park (Albert H. Mauro Playground),Park Drive East & 73 Terrace,40.7251204,-73.8277254
Flushing Meadows Corona Park (Meadow Lake North),Long Island Expressway to Meadow Lake to Van Wyck Expressway Extension to Grand Central Parkway,40.7359996,-73.840436
Flushing Meadows Corona Park (Playground for All Children),111 Street and Corona Avenue,40.7408291,-73.8499488
Flushing Meadows Corona Park (Worlds Fair Playground),"Grand Central Parkway, Van Wyck Expressway",40.7375349,-73.8457658
Flynn Playground,"3 Avenue, East 158 Street, Brook Avenue, East 157 Street",40.820978,-73.911863
Forest Park (Jackson Pond Playground),108 Street and Park Lane South,40.7007278,-73.8431928
Forest Park (Seuffert Bandshell),West Main Drive to eastern side of golf course,40.698519,-73.85805
"Forest Park (Sobelsohn Playground, The Overlook)",Park Lane South and Abingdon Road,40.7096359,-73.834812
Forest Park (Tennis Courts -Forest Parkway),Park Lane South to north of tennis courts,40.697681,-73.856495
Forest Park (The Overlook),Park Lane (to east and south) to Metropolitan Avenue,40.702856,-73.849107
"Forest Park (Visitor Center, near the Carousel)",Woodhaven Boulevard and Forest Park Drive,40.700661,-73.856004
Fort Greene Park,South of Myrtle Avenue to Willoughby Avenue,40.6914866,-73.9753317
Fort Independence Playground,"Stevenson Place, West 238 Street, Sedgwick Avenue",34.8686932,-85.8394199
Francis Lewis Playground,3 Avenue and Bronx Whitestone Bridge,40.760445,-73.78434
Frank D. O'Connor Playground,Broadway & 78 Street,41.1115472,-73.8583806
Frank Golden Park,"132 to 138 streets, 14 Road",43.8515035,-79.2703385
Frederick B. Judge Memorial Playground,"111 Avenue, 134 & 135 streets, Lincoln Street",53.5587088,-113.5819341
Fresh Meadows Playground (PS 173),67 Avenue & 173 Street,25.9478599,-80.3073243
Friends Field,"Avenue L, East 4 Street, McDonald Avenue, Avenue M",40.618619,-73.972871
Glenwood Playground,Ralph Avenue & Farragut Road,40.634696,-73.9188247
Gorman Playground,30 Avenue between 84 & 85 streets,51.3299758,-0.4134902
Gouverneur Playground,"3rd Avenue, St. Paul's Place, East 170 Street",27.7749317,-82.6351014
Gowanus Playground,Wyckoff Street between Bond & Hoyt streets,41.0095316,-74.1729106
Grandview Playground,"Grandview Avenue, Continental Place",40.63078,-74.164679
Gravesend Park,18 Avenue & 56 Street,47.9330656,-97.3115371
Greene Playground,Greene & Washington avenues,39.697399,-83.8897057
Greenwood Playground,"Fort Hamilton Parkway, Greenwood, East 5 Street",40.6094454,-74.0285434
Grover Cleveland Park,"Rene Court, Grandview Avenue, Stanjope Street & Fairview Avenue",40.834321,-74.283167
Gunn Park (PS 18),"Hillside Avenue, east of 235 Court",40.732456,-73.731724
Haggerty Park,202 Street & Jamaica Avenue,40.721486,-73.757948
Harry Maze Memorial Park,Avenue D between East 56 & East 57 Street,40.643022,-73.923026
Hermon MacNeil Park,East of paved path running north from 119th Street,40.7928327,-73.8518567
High Rock Park,Richmond Parkway & Moravian Cemetery at Rockland Avenue,40.582287,-74.123155
High Rock Park (Education Building),Richmond Parkway & Moravian Cemetery at Rockland Avenue,40.584828,-74.12514
High Rock Park (McArthur Park),Richmond Parkway & Moravian Cemetery at Rockland Avenue,40.582531,-74.123208
High Rock Park (Visitor Center),Richmond Parkway & Moravian Cemetery at Rockland Avenue,40.584539,-74.125161
Highland Park,Jackie Robinson Parkway to Highland Boulevard,40.4959379,-74.4243178
Hoffman Park,Hoffman Drive west of Queens Boulevard,40.732715,-73.872106
Jacob Schiff Playground (PS 192),"Amsterdam Avenue, West 136 Street",40.8174777,-73.946736
John J. Carty Park,"Fort Hamilton Parkway, 94-95 streets",40.613194,-74.03008
Joseph Austin Playground,Grand Central Parkway & 164 Place,40.7186362,-73.7954966
Joseph F. Mafera Park,65 Place & Catalpa Avenue & 68 Avenue,30.721227,35.3099502
Juniper Valley Park,Lutheran Avenue; North and South Juniper boulevards; and the pathway from 76th Street on north end to 75th Street on south end,42.3388111,-71.0765188
K.L. Williams Playground (Tennis),"Liberty Avenue, 172-173 streets",40.1387194,-92.0726067
Katzman Playground,Yellowstone Boulevard between 68 Avenue & 68 Road,40.726407,-73.847432
Kennedy Playground,Corp. Kennedy Street & 33 Avenue,40.771013,-73.779077
Kissena Park (Tennis Courts),Rose & Oak avenues,40.744708,-73.809363
La Guardia Playground West,"Havemeyer, Roebling streets & South 4",40.709894,-73.959284
Leif Ericson Park & Square,CLF behind CS adjacent to 5th Avenue to 7th Avenue(Highway) between 66th and 67th Street,40.629766,-74.010631
Levy Playground,Jewett & Castleton avenues,40.633905,-74.1290426
Liberty Pool,173rd Street and 106th Avenue,34.559255,-92.7408164
Park of the Americas,104 Street & 41 Avenue,40.748521,-73.86195
Luna Park Playground,West 12 Street & Surf Avenue,40.576129,-73.978033
Marc's & Jason's Playground,Sterling Street & Empire Boulevard,40.663323,-73.949663
Marine Park Nature Center,East 33rd Street and Avenue U,40.6039714,-73.930572
Mathew Muliner Playground,"Delancy Place, Muliner Avenue, Matthews Avenue",40.8468846,-73.8614786
Maurice Park,"Maurice, Borden, 54 avenues, 63 Street",40.727537,-73.904855
McKinley Park,"Fort Hamilton Parkway, 73 to 78 streets, 7 Avenue",40.626552,-74.016745
Midland Beach & Boardwalk,"Natural Area and Boardwalk from Sands Lane to Vulcan Street, East of Father Capodanno Boulevard",40.57149,-74.0931627
Monsignor Mcgolrick Park,"Driggs to Nassau avenues, Russell to Monitor streets",40.7244435,-73.9433581
Noonan Playground,"Greenpoint & 47 avenues, 43 Street",40.74127,-73.922399
P.O. Nicholas Demutis Playground,102 Street & Liberty Avenue,45.9135471,-100.3364941
Park Slope Playground,Berkeley Street & Lincoln Place,38.7544952,-90.3312256
Pat Perlato Playground,Falmouth Street & Oriental Avenue,38.6372288,-84.5579481
Paul W. Kolbert Park/Rachel Haber Cohen Playground,"Avenue L, East 17 to East 18 streets",36.1259239,-111.2178871
Pelham Bay Park (Bruckner CS),"Bruckner Boulevard, Eastchester Bay, Hutchinson",40.8524136,-73.8263227
People's Park Playground,"Brook Avenue, East 141 Street",44.0509913,-95.5335334
Peter's Field,183 Place & Henderson Avenue,40.735845,-73.98086
PFC Thomas Norton Memorial Playground,Nostrand Avenue & Marine Parkway,40.614993,-73.944587
Pierrepont Playground,"Furman Street, Pierrepont Place",40.696305,-73.99745
Pink Playground,Stanley Avenue & Eldert Lane,40.666304,-73.862032
Playground 62 (PS 220),Yellowstone Boulevard between 62 Avenue & 62 Road,40.73624,-73.854875
Playground Fifty-Two,"Kelly Street, St. John's Avenue, Beck Street",40.815219,-73.901698
Poor Richard's Playground,East 109 Street between 2 & 3 avenues,29.8462469,31.344523
Potomac Playground,Tompkins Avenue & Halsey Street,40.6120263,-74.0708689
Pratt Playground,"Willoughby Avenue, Emerson Place",41.6397696,-81.4065011
Prospect Park (East Parade Grounds),Argyle Road/Parade Place./Parkside Avenue/Caton Avenue,40.651894,-73.965707
Prospect Park (Litchfield Villa),Prospect Park West/3rd Street/7th Street,40.666981,-73.97378
Prospect Park (Middle Long Meadow),Picnic House,40.661447,-73.973008
Prospect Park (West Parade Grounds),Coney Island Avenue/Arglye Road/Parkside Avenue/Caton Avenue,40.649717,-73.970966
Prospect Park (Willink Hill),Lincoln Road/Ocean Avenue/Willink Entrance/East Lake Drive,40.661913,-73.963877
Prospect Park (Wollman Rink & Flower Garden),Prospect Lake/East Lake Drive/south of Breeze Hill/Parking Lot,40.669335,-73.970271
PS 286 Playground,"Avenue Y, between Brown & Haring streets",40.592388,-73.936367
Real Good Park (Lie Playground),99 Street & 62 Avenue,40.735407,-73.857742
Riverside Park (Boat Basin),"Riverside Drive to Hudson River, West 59th Street to Clair Place",40.785871,-73.984487
Riverside Park (Caf),"105th Street, next to Henry Hudson Parkway",40.785733,-73.984493
Riverside Park (Claremont),West 124 Street & Riverside Drive,40.811453,-73.963493
Riverside Park (Classic Playground),72nd to 79th streets between Hudson River and Henry Hudson Parkway,40.787322,-73.980938
Riverside Park (Dinosaur Playground),West 97 Street & Riverside Drive,41.7166075,-87.7321699
Riverside Park (Hippo Playground),West 91 Street & Riverside Drive,41.7270733,-87.756897
Riverside Park (Neufeld Playground),West 76 Street & Riverside Drive,43.8501819,-85.8749985
Riverside Park (River Run Playground),West 83 Street & Riverside Drive,38.9780838,-94.9017482
Riverside Park (Riverbank Playground),West 142 Street & Riverside Drive,41.6370323,-87.6415624
Riverside Park (Ten Mile River Playground),West 148 Street & Hudson River,41.6208231,-87.6681095
Riverside Park (Tennis Courts),Riverside Drive & West 96th Street,40.8158821,-73.9623705
Robert Moses Playground,"1 Avenue, East 41 to East 42 streets",36.1259239,-111.2178871
Rochdale Park,"Guy Brewer Boulevard, 134 Avenue",40.681351,-73.787159
Rockaway Beach,Between 87th Street and 100th Street,40.584528,-73.811149
Rockaway Beach & Boardwalk (Beach 59th Street Playground),Boardwalk & Beach 59-60 streets,29.9577052,-95.5791226
Rockaway Beach (Beach 116Th),Between 110th and 121st streets,40.577385,-73.836923
Rockaway Beach 106 Comfort Station,Beach 106 Street,40.582913,-73.8278554
Rockaway Beach 117th L/G,Beach 117 Street,40.5795009,-73.8381068
Rockaway Beach 86 Comfort Station,Beach 86 Street,40.5890677,-73.8114645
Rockaway Beach 97 Comfort Station,Beach 97 Street,40.584947,-73.8188057
Roebling Playground,"Wilson & Lee avenues, Taylor Street",35.7212689,-77.9155395
Roger Morris Park (Morris Jumel Mansion),"Jumel Terrace to Edgecombe Avenue, West 160 to West 162 streets",40.83465,-73.93853
Rosemary's Playground (JHS 93),"Woodward Avenue, Woodbine Street, Fairview Avenue",40.704357,-73.904049
Roy Wilkins Recreation Center,Southeast of fence running from 118th Road to hospital,40.687236,-73.772122
Rudd Playground,Aberdeen Street & Bushwick Avenue,-38.1457082,144.3383446
Sara D. Roosevelt Park,East Houston Street to Canal Street,29.7604267,-95.3698028
Seth Low Playground,"Avenue P, Bay Parkway, West 12 Street",30.1696405,-85.6375679
Seton Park Playground,West 235 Street & Douglas Avenue,40.9666567,-95.3371507
Sheltering Arms Park,"West 129 Street, Amsterdam Avenue",40.7743849,-73.98468
Shore Road Park,Owl's Head Park to Fort Hamilton Parkway Narrows Avenue,40.622012,-74.040678
Shore Road Park,72nd Street to Harbor View,40.628187,-74.039913
Shore Road Park,"92nd Street to 4 Avenue - lower half, by expressway",40.620685,-74.0409
Sol Bloom Playground,"Columbus Avenue, West 91 to West 92 streets, Central Park West",40.7895736,-73.9687693
Sol Lain Playground,"Broadway, Henry Street, Samuel Dickstein Place",40.7143044,-73.9839212
Sperandeo Brothers Playground,Atlantic Avenue & Elton Street,40.6770054,-73.8847238
Springfield Park,"149 Avenue, Springfield Boulevard, 145 Road, 148 Street",40.661031,-73.761786
St. Andrew's Playground,Atlantic Avenue & Herkimer Street,40.6762581,-73.9082993
St. Catherine's Park,"East 67-68 streets, 1 Avenue",40.764625,-73.9583262
St. Mary's Park (Recreation Center),450 St. Ann's Avenue,37.8921376,-89.5047806
St. Mary's Park West,St. Anns Avenue & East 147 Street,40.8123102,-73.9140718
St. Mary's Playground East Playground,Jackson Avenue between East 144 and 145 streets,40.811655,-73.914028
St. Vartan Park,"East 35-East 36 streets, between 1 & 2 avenues",29.8894662,31.3071263
Stroud Playground,Classon Avenue & Sterling Place,40.6844907,-73.9591228
Sunset Park (Recreation Center),"41 to 44 streets, 5 to 7 avenues",14.445776,79.9814137
Taylor Playground,"Guerlain Street, Thieriot Avenue, Taylor Avenue",40.8391317,-73.8659808
Terrace Playground,Howard Avenue & Martha Street,28.8535234,-96.3819597
The Pearly Gates,"Tratman Avenue, Street Peter's Avenue",40.8387396,-73.8454901
Thomas Jefferson Park,"1 Avenue to FDR Drive, East 111 to East 114 streets",40.793427,-73.934029
Todt Hill Playground,Schmidts Lane & Manor Road,40.609359,-74.12035
Tompkins Square Park,"Avenues A to B, East 7 to East 10 streets",40.726747,-73.9807
Triborough Bridge Playground A,"Hoyt Avenue, 19 to 21 streets",40.778799,-73.922544
Triborough Bridge Playground B,"Hoyt Avenue, 21 to 23 streets",40.784987,-73.925913
Underwood Park,Lafayette & Waverly avenues,30.2240897,-92.0198427
Washington Square Park Western Half,"5 Avenue, Waverly Place, West 4 & MacDougal streets.",30.0309108,-90.2171064
Wayanda Park,Robard Lane & 217 Street,40.7101235,-73.7395005
Weeping Beech Park,37 Avenue & Bowne Street,41.5505926,-87.2047099
West 2nd Street Playground,W. 2nd Street,33.3909024,-104.7074011
Luna Park Playground,W 8 St.,33.4242225,-94.057226
William E. Kelly Memorial Park,"Avenue S, East 14 & East 15 streets",45.4572407,-91.0830932
Williamsbridge Oval,"Reservoir Oval East, Reservoir Oval West, Reservoir Place, Putnam Place, Bainbridge Avenue, Wayne Avenue, Tryon Avenue, Holt Place, Van Cortlandt Avenue",40.8779125,-73.8775576
Willis Playground,"East 139 Street, East 140 Street, Willis & Alexander avenues",40.8109536,-73.9228473
Willow Lake Playground (PS 196),Grand Central Parkway between 71 & 72 avenues,40.722735,-73.836987
Wingate Park,Brooklyn Avenue & Rutland Road,33.0303077,-83.9287213
Woods Playground,Bergen Street & Utica Avenue,40.7233091,-74.1994354
Woodtree Playground,"20 Avenue, 37 Street, 38 Street",30.0443639,31.0364072